"Longitude (x)","Latitude (y)","Station Name","Climate ID","Date/Time (LST)","Year","Month","Day","Time (LST)","Temp (°C)","Temp Flag","Dew Point Temp (°C)","Dew Point Temp Flag","Rel Hum (%)","Rel Hum Flag","Precip. Amount (mm)","Precip. Amount Flag","Wind Dir (10s deg)","Wind Dir Flag","Wind Spd (km/h)","Wind Spd Flag","Visibility (km)","Visibility Flag","Stn Press (kPa)","Stn Press Flag","Hmdx","Hmdx Flag","Wind Chill","Wind Chill Flag","Weather"
"-111.22","56.65","FORT MCMURRAY A","3062697","2013-11-01 00:00","2013","11","01","00:00","3.1","","1.6","","90","","","","27","","8","","16.1","","96.10","","","","","","NA"
"-111.22","56.65","FORT MCMURRAY A","3062697","2013-11-01 01:00","2013","11","01","01:00","2.5","","1.8","","95","","","","","","0","","16.1","","96.11","","","","","","NA"
"-111.22","56.65","FORT MCMURRAY A","3062697","2013-11-01 02:00","2013","11","01","02:00","2.4","","1.5","","94","","","","23","","11","","16.1","","96.15","","","","","","NA"
"-111.22","56.65","FORT MCMURRAY A","3062697","2013-11-01 03:00","2013","11","01","03:00","1.9","","0.8","","92","","","","24","","13","","16.1","","96.19","","","","","","NA"
"-111.22","56.65","FORT MCMURRAY A","3062697","2013-11-01 04:00","2013","11","01","04:00","1.3","","0.3","","93","","","","24","","9","","16.1","","96.24","","","","","","NA"
"-111.22","56.65","FORT MCMURRAY A","3062697","2013-11-01 05:00","2013","11","01","05:00","0.2","","-0.5","","95","","","","","","0","","16.1","","96.28","","","","","","NA"
"-111.22","56.65","FORT MCMURRAY A","3062697","2013-11-01 06:00","2013","11","01","06:00","-1.1","","-1.5","","97","","","","20","","9","","16.1","","96.33","","","","-4","","NA"
"-111.22","56.65","FORT MCMURRAY A","3062697","2013-11-01 07:00","2013","11","01","07:00","-1.8","","-2.2","","97","","","","22","","5","","16.1","","96.35","","","","-4","","NA"
"-111.22","56.65","FORT MCMURRAY A","3062697","2013-11-01 08:00","2013","11","01","08:00","-1.1","","-1.9","","94","","","","22","","13","","16.1","","96.37","","","","-5","","NA"
"-111.22","56.65","FORT MCMURRAY A","3062697","2013-11-01 09:00","2013","11","01","09:00","0.0","","-1.1","","92","","","","23","","11","","16.1","","96.39","","","","-4","","NA"
"-111.22","56.65","FORT MCMURRAY A","3062697","2013-11-01 10:00","2013","11","01","10:00","0.9","","-0.6","","90","","","","24","","8","","16.1","","96.41","","","","","","NA"
"-111.22","56.65","FORT MCMURRAY A","3062697","2013-11-01 11:00","2013","11","01","11:00","3.1","","0.4","","83","","","","26","","11","","16.1","","96.41","","","","","","NA"
"-111.22","56.65","FORT MCMURRAY A","3062697","2013-11-01 12:00","2013","11","01","12:00","5.0","","0.4","","72","","","","26","","15","","16.1","","96.43","","","","","","NA"
"-111.22","56.65","FORT MCMURRAY A","3062697","2013-11-01 13:00","2013","11","01","13:00","5.4","","0.2","","69","","","","26","","17","","16.1","","96.43","","","","","","NA"
"-111.22","56.65","FORT MCMURRAY A","3062697","2013-11-01 14:00","2013","11","01","14:00","7.5","","0.2","","60","","","","22","","15","","16.1","","96.42","","","","","","NA"
"-111.22","56.65","FORT MCMURRAY A","3062697","2013-11-01 15:00","2013","11","01","15:00","8.9","","0.0","","54","","","","26","","24","","16.1","","96.42","","","","","","NA"
"-111.22","56.65","FORT MCMURRAY A","3062697","2013-11-01 16:00","2013","11","01","16:00","9.4","","-0.3","","51","","","","25","","18","","16.1","","96.44","","","","","","NA"
"-111.22","56.65","FORT MCMURRAY A","3062697","2013-11-01 17:00","2013","11","01","17:00","8.2","","-0.6","","54","","","","24","","15","","16.1","","96.47","","","","","","NA"
"-111.22","56.65","FORT MCMURRAY A","3062697","2013-11-01 18:00","2013","11","01","18:00","5.7","","-1.0","","62","","","","24","","13","","16.1","","96.50","","","","","","NA"
"-111.22","56.65","FORT MCMURRAY A","3062697","2013-11-01 19:00","2013","11","01","19:00","4.2","","-1.8","","65","","","","25","","13","","16.1","","96.53","","","","","","NA"
"-111.22","56.65","FORT MCMURRAY A","3062697","2013-11-01 20:00","2013","11","01","20:00","2.9","","-1.8","","71","","","","24","","15","","16.1","","96.54","","","","","","NA"
"-111.22","56.65","FORT MCMURRAY A","3062697","2013-11-01 21:00","2013","11","01","21:00","2.9","","-1.9","","71","","","","26","","17","","16.1","","96.55","","","","","","NA"
"-111.22","56.65","FORT MCMURRAY A","3062697","2013-11-01 22:00","2013","11","01","22:00","3.7","","-2.5","","64","","","","27","","9","","16.1","","96.58","","","","","","NA"
"-111.22","56.65","FORT MCMURRAY A","3062697","2013-11-01 23:00","2013","11","01","23:00","2.4","","-2.6","","70","","","","22","","11","","16.1","","96.62","","","","","","NA"
"-111.22","56.65","FORT MCMURRAY A","3062697","2013-11-02 00:00","2013","11","02","00:00","2.2","","-2.6","","71","","","","23","","11","","16.1","","96.65","","","","","","NA"
"-111.22","56.65","FORT MCMURRAY A","3062697","2013-11-02 01:00","2013","11","02","01:00","0.7","","-2.9","","77","","","","25","","11","","16.1","","96.68","","","","","","NA"
"-111.22","56.65","FORT MCMURRAY A","3062697","2013-11-02 02:00","2013","11","02","02:00","-1.1","","-4.0","","81","","","","24","","9","","16.1","","96.69","","","","-4","","NA"
"-111.22","56.65","FORT MCMURRAY A","3062697","2013-11-02 03:00","2013","11","02","03:00","-1.7","","-4.1","","84","","","","22","","11","","16.1","","96.71","","","","-6","","NA"
"-111.22","56.65","FORT MCMURRAY A","3062697","2013-11-02 04:00","2013","11","02","04:00","-2.3","","-4.2","","87","","","","22","","9","","16.1","","96.72","","","","-6","","NA"
"-111.22","56.65","FORT MCMURRAY A","3062697","2013-11-02 05:00","2013","11","02","05:00","-2.8","","-4.3","","90","","","","23","","11","","16.1","","96.76","","","","-7","","NA"
"-111.22","56.65","FORT MCMURRAY A","3062697","2013-11-02 06:00","2013","11","02","06:00","-2.4","","-4.0","","89","","","","24","","9","","16.1","","96.80","","","","-6","","NA"
"-111.22","56.65","FORT MCMURRAY A","3062697","2013-11-02 07:00","2013","11","02","07:00","-1.8","","-3.7","","87","","","","26","","9","","16.1","","96.80","","","","-5","","NA"
"-111.22","56.65","FORT MCMURRAY A","3062697","2013-11-02 08:00","2013","11","02","08:00","-1.7","","-3.5","","88","","","","25","","5","","16.1","","96.82","","","","-4","","NA"
"-111.22","56.65","FORT MCMURRAY A","3062697","2013-11-02 09:00","2013","11","02","09:00","-1.5","","-3.2","","89","","","","23","","4","","16.1","","96.83","","","","-3","","NA"
"-111.22","56.65","FORT MCMURRAY A","3062697","2013-11-02 10:00","2013","11","02","10:00","-0.7","","-2.4","","88","","","","36","","4","","16.1","","96.83","","","","-2","","NA"
"-111.22","56.65","FORT MCMURRAY A","3062697","2013-11-02 11:00","2013","11","02","11:00","-0.6","","-1.5","","94","","","","30","","4","","9.7","","96.87","","","","-2","","NA"
"-111.22","56.65","FORT MCMURRAY A","3062697","2013-11-02 12:00","2013","11","02","12:00","-0.3","","-1.3","","93","","","","32","","5","","16.1","","96.89","","","","-2","","NA"
"-111.22","56.65","FORT MCMURRAY A","3062697","2013-11-02 13:00","2013","11","02","13:00","-0.4","","-1.5","","92","","","","32","","9","","16.1","","96.86","","","","-4","","NA"
"-111.22","56.65","FORT MCMURRAY A","3062697","2013-11-02 14:00","2013","11","02","14:00","-0.4","","-2.3","","87","","","","32","","9","","16.1","","96.84","","","","-4","","NA"
"-111.22","56.65","FORT MCMURRAY A","3062697","2013-11-02 15:00","2013","11","02","15:00","-0.5","","-2.8","","84","","","","32","","11","","16.1","","96.84","","","","-4","","NA"
"-111.22","56.65","FORT MCMURRAY A","3062697","2013-11-02 16:00","2013","11","02","16:00","-0.9","","-3.0","","85","","","","32","","13","","16.1","","96.88","","","","-5","","NA"
"-111.22","56.65","FORT MCMURRAY A","3062697","2013-11-02 17:00","2013","11","02","17:00","-1.3","","-3.5","","85","","","","33","","17","","16.1","","96.89","","","","-6","","NA"
"-111.22","56.65","FORT MCMURRAY A","3062697","2013-11-02 18:00","2013","11","02","18:00","-1.6","","-3.7","","86","","","","34","","13","","16.1","","96.89","","","","-6","","NA"
"-111.22","56.65","FORT MCMURRAY A","3062697","2013-11-02 19:00","2013","11","02","19:00","-1.8","","-4.0","","85","","","","1","","13","","16.1","","96.91","","","","-6","","NA"
"-111.22","56.65","FORT MCMURRAY A","3062697","2013-11-02 20:00","2013","11","02","20:00","-2.2","","-4.1","","87","","","","34","","15","","14.5","","96.94","","","","-7","","NA"
"-111.22","56.65","FORT MCMURRAY A","3062697","2013-11-02 21:00","2013","11","02","21:00","-2.6","","-5.2","","82","","","","1","","11","","16.1","","97.00","","","","-7","","NA"
"-111.22","56.65","FORT MCMURRAY A","3062697","2013-11-02 22:00","2013","11","02","22:00","-3.2","","-6.0","","81","","","","36","","15","","16.1","","97.03","","","","-8","","NA"
"-111.22","56.65","FORT MCMURRAY A","3062697","2013-11-02 23:00","2013","11","02","23:00","-3.9","","-6.7","","81","","","","1","","13","","16.1","","97.07","","","","-9","","NA"
"-111.22","56.65","FORT MCMURRAY A","3062697","2013-11-03 00:00","2013","11","03","00:00","-4.5","","-6.1","","89","","","","36","","17","","16.1","","97.10","","","","-10","","NA"
"-111.22","56.65","FORT MCMURRAY A","3062697","2013-11-03 01:00","2013","11","03","01:00","-5.2","","-6.6","","90","","","","34","","17","","16.1","","97.12","","","","-11","","NA"
"-111.22","56.65","FORT MCMURRAY A","3062697","2013-11-03 02:00","2013","11","03","02:00","-5.7","","-7.7","","86","","","","36","","17","","16.1","","97.16","","","","-12","","NA"
"-111.22","56.65","FORT MCMURRAY A","3062697","2013-11-03 03:00","2013","11","03","03:00","-6.0","","-8.6","","82","","","","2","","11","","16.1","","97.18","","","","-11","","NA"
"-111.22","56.65","FORT MCMURRAY A","3062697","2013-11-03 04:00","2013","11","03","04:00","-6.1","","-9.3","","78","","","","1","","15","","16.1","","97.21","","","","-12","","NA"
"-111.22","56.65","FORT MCMURRAY A","3062697","2013-11-03 05:00","2013","11","03","05:00","-6.1","","-9.6","","77","","","","35","","18","","16.1","","97.23","","","","-13","","NA"
"-111.22","56.65","FORT MCMURRAY A","3062697","2013-11-03 06:00","2013","11","03","06:00","-6.2","","-9.9","","75","","","","36","","11","","16.1","","97.23","","","","-11","","NA"
"-111.22","56.65","FORT MCMURRAY A","3062697","2013-11-03 07:00","2013","11","03","07:00","-6.3","","-10.3","","74","","","","35","","13","","16.1","","97.24","","","","-12","","NA"
"-111.22","56.65","FORT MCMURRAY A","3062697","2013-11-03 08:00","2013","11","03","08:00","-6.3","","-10.4","","73","","","","34","","13","","16.1","","97.27","","","","-12","","NA"
"-111.22","56.65","FORT MCMURRAY A","3062697","2013-11-03 09:00","2013","11","03","09:00","-6.2","","-9.7","","77","","","","34","","13","","16.1","","97.30","","","","-12","","NA"
"-111.22","56.65","FORT MCMURRAY A","3062697","2013-11-03 10:00","2013","11","03","10:00","-6.0","","-8.8","","81","","","","36","","15","","16.1","","97.33","","","","-12","","NA"
"-111.22","56.65","FORT MCMURRAY A","3062697","2013-11-03 11:00","2013","11","03","11:00","-5.7","","-8.7","","80","","","","34","","15","","16.1","","97.34","","","","-11","","NA"
"-111.22","56.65","FORT MCMURRAY A","3062697","2013-11-03 12:00","2013","11","03","12:00","-5.5","","-8.4","","80","","","","34","","21","","16.1","","97.36","","","","-12","","NA"
"-111.22","56.65","FORT MCMURRAY A","3062697","2013-11-03 13:00","2013","11","03","13:00","-5.2","","-8.5","","78","","","","35","","17","","16.1","","97.36","","","","-11","","NA"
"-111.22","56.65","FORT MCMURRAY A","3062697","2013-11-03 14:00","2013","11","03","14:00","-4.9","","-8.7","","75","","","","33","","18","","16.1","","97.36","","","","-11","","NA"
"-111.22","56.65","FORT MCMURRAY A","3062697","2013-11-03 15:00","2013","11","03","15:00","-5.4","","-8.5","","79","","","","35","","15","","9.7","","97.38","","","","-11","","NA"
"-111.22","56.65","FORT MCMURRAY A","3062697","2013-11-03 16:00","2013","11","03","16:00","-5.4","","-9.1","","76","","","","35","","17","","16.1","","97.42","","","","-11","","NA"
"-111.22","56.65","FORT MCMURRAY A","3062697","2013-11-03 17:00","2013","11","03","17:00","-5.7","","-9.7","","74","","","","33","","17","","16.1","","97.46","","","","-12","","NA"
"-111.22","56.65","FORT MCMURRAY A","3062697","2013-11-03 18:00","2013","11","03","18:00","-5.9","","-10.1","","72","","","","35","","17","","16.1","","97.48","","","","-12","","NA"
"-111.22","56.65","FORT MCMURRAY A","3062697","2013-11-03 19:00","2013","11","03","19:00","-6.1","","-9.7","","76","","","","35","","13","","16.1","","97.51","","","","-11","","NA"
"-111.22","56.65","FORT MCMURRAY A","3062697","2013-11-03 20:00","2013","11","03","20:00","-6.2","","-9.9","","76","","","","36","","18","","12.9","","97.54","","","","-13","","NA"
"-111.22","56.65","FORT MCMURRAY A","3062697","2013-11-03 21:00","2013","11","03","21:00","-6.4","","-10.0","","76","","","","1","","15","","16.1","","97.56","","","","-12","","NA"
"-111.22","56.65","FORT MCMURRAY A","3062697","2013-11-03 22:00","2013","11","03","22:00","-7.0","","-11.0","","73","","","","3","","21","","16.1","","97.57","","","","-14","","NA"
"-111.22","56.65","FORT MCMURRAY A","3062697","2013-11-03 23:00","2013","11","03","23:00","-7.0","","-10.9","","74","","","","1","","18","","16.1","","97.60","","","","-14","","NA"
"-111.22","56.65","FORT MCMURRAY A","3062697","2013-11-04 00:00","2013","11","04","00:00","-7.1","","-10.4","","77","","","","35","","13","","16.1","","97.59","","","","-13","","NA"
"-111.22","56.65","FORT MCMURRAY A","3062697","2013-11-04 01:00","2013","11","04","01:00","-7.2","","-10.6","","77","","","","34","","17","","16.1","","97.59","","","","-14","","NA"
"-111.22","56.65","FORT MCMURRAY A","3062697","2013-11-04 02:00","2013","11","04","02:00","-7.5","","-9.6","","85","","","","32","","11","","16.1","","97.58","","","","-13","","NA"
"-111.22","56.65","FORT MCMURRAY A","3062697","2013-11-04 03:00","2013","11","04","03:00","-7.9","","-9.7","","87","","","","33","","15","","11.3","","97.59","","","","-14","","NA"
"-111.22","56.65","FORT MCMURRAY A","3062697","2013-11-04 04:00","2013","11","04","04:00","-8.2","","-10.0","","87","","","","34","","13","","16.1","","97.59","","","","-14","","NA"
"-111.22","56.65","FORT MCMURRAY A","3062697","2013-11-04 05:00","2013","11","04","05:00","-8.9","","-11.9","","79","","","","34","","18","","16.1","","97.59","","","","-16","","NA"
"-111.22","56.65","FORT MCMURRAY A","3062697","2013-11-04 06:00","2013","11","04","06:00","-9.3","","-11.8","","83","","","","35","","11","","16.1","","97.59","","","","-15","","NA"
"-111.22","56.65","FORT MCMURRAY A","3062697","2013-11-04 07:00","2013","11","04","07:00","-9.4","","-11.9","","82","","","","34","","9","","16.1","","97.59","","","","-14","","NA"
"-111.22","56.65","FORT MCMURRAY A","3062697","2013-11-04 08:00","2013","11","04","08:00","-9.3","","-11.4","","85","","","","36","","9","","16.1","","97.60","","","","-14","","NA"
"-111.22","56.65","FORT MCMURRAY A","3062697","2013-11-04 09:00","2013","11","04","09:00","-9.3","","-11.5","","84","","","","1","","8","","14.5","","97.63","","","","-14","","NA"
"-111.22","56.65","FORT MCMURRAY A","3062697","2013-11-04 10:00","2013","11","04","10:00","-9.3","","-11.6","","84","","","","2","","8","","4.8","","97.63","","","","-14","","NA"
"-111.22","56.65","FORT MCMURRAY A","3062697","2013-11-04 11:00","2013","11","04","11:00","-9.0","","-11.5","","82","","","","34","","9","","16.1","","97.60","","","","-14","","NA"
"-111.22","56.65","FORT MCMURRAY A","3062697","2013-11-04 12:00","2013","11","04","12:00","-8.7","","-11.4","","81","","","","36","","8","","16.1","","97.58","","","","-13","","NA"
"-111.22","56.65","FORT MCMURRAY A","3062697","2013-11-04 13:00","2013","11","04","13:00","-8.7","","-11.7","","79","","","","28","","5","","16.1","","97.56","","","","-11","","NA"
"-111.22","56.65","FORT MCMURRAY A","3062697","2013-11-04 14:00","2013","11","04","14:00","-8.5","","-11.7","","78","","","","29","","11","","16.1","","97.53","","","","-14","","NA"
"-111.22","56.65","FORT MCMURRAY A","3062697","2013-11-04 15:00","2013","11","04","15:00","-8.3","","-11.8","","76","","","","31","","5","","16.1","","97.51","","","","-11","","NA"
"-111.22","56.65","FORT MCMURRAY A","3062697","2013-11-04 16:00","2013","11","04","16:00","-7.8","","-12.0","","72","","","","","M","4","","16.1","","97.45","","","","-10","","NA"
"-111.22","56.65","FORT MCMURRAY A","3062697","2013-11-04 17:00","2013","11","04","17:00","-8.0","","-12.0","","73","","","","","","0","","16.1","","97.43","","","","","","NA"
"-111.22","56.65","FORT MCMURRAY A","3062697","2013-11-04 18:00","2013","11","04","18:00","-9.9","","-12.5","","82","","","","12","","4","","16.1","","97.38","","","","-12","","NA"
"-111.22","56.65","FORT MCMURRAY A","3062697","2013-11-04 19:00","2013","11","04","19:00","-11.5","","-13.3","","87","","","","12","","9","","9.7","","97.36","","","","-17","","NA"
"-111.22","56.65","FORT MCMURRAY A","3062697","2013-11-04 20:00","2013","11","04","20:00","-12.3","","-13.6","","90","","","","14","","8","","16.1","","97.34","","","","-17","","NA"
"-111.22","56.65","FORT MCMURRAY A","3062697","2013-11-04 21:00","2013","11","04","21:00","-12.7","","-14.0","","90","","","","13","","8","","16.1","","97.32","","","","-18","","NA"
"-111.22","56.65","FORT MCMURRAY A","3062697","2013-11-04 22:00","2013","11","04","22:00","-12.9","","-14.2","","90","","","","11","","8","","16.1","","97.31","","","","-18","","NA"
"-111.22","56.65","FORT MCMURRAY A","3062697","2013-11-04 23:00","2013","11","04","23:00","-13.7","","-15.1","","89","","","","11","","11","","16.1","","97.27","","","","-20","","NA"
"-111.22","56.65","FORT MCMURRAY A","3062697","2013-11-05 00:00","2013","11","05","00:00","-13.6","","-15.0","","89","","","","11","","11","","16.1","","97.25","","","","-20","","NA"
"-111.22","56.65","FORT MCMURRAY A","3062697","2013-11-05 01:00","2013","11","05","01:00","-14.3","","-15.9","","88","","","","10","","9","","16.1","","97.23","","","","-20","","NA"
"-111.22","56.65","FORT MCMURRAY A","3062697","2013-11-05 02:00","2013","11","05","02:00","-14.8","","-16.4","","88","","","","9","","8","","16.1","","97.23","","","","-20","","NA"
"-111.22","56.65","FORT MCMURRAY A","3062697","2013-11-05 03:00","2013","11","05","03:00","-15.3","","-16.9","","88","","","","11","","8","","16.1","","97.19","","","","-21","","NA"
"-111.22","56.65","FORT MCMURRAY A","3062697","2013-11-05 04:00","2013","11","05","04:00","-15.1","","-16.8","","87","","","","10","","8","","16.1","","97.17","","","","-20","","NA"
"-111.22","56.65","FORT MCMURRAY A","3062697","2013-11-05 05:00","2013","11","05","05:00","-14.8","","-16.5","","87","","","","10","","8","","16.1","","97.17","","","","-20","","NA"
"-111.22","56.65","FORT MCMURRAY A","3062697","2013-11-05 06:00","2013","11","05","06:00","-15.1","","-16.8","","87","","","","10","","9","","16.1","","97.17","","","","-21","","NA"
"-111.22","56.65","FORT MCMURRAY A","3062697","2013-11-05 07:00","2013","11","05","07:00","-15.2","","-16.9","","87","","","","9","","9","","16.1","","97.15","","","","-21","","NA"
"-111.22","56.65","FORT MCMURRAY A","3062697","2013-11-05 08:00","2013","11","05","08:00","-15.6","","-17.4","","86","","","","10","","8","","16.1","","97.14","","","","-21","","NA"
"-111.22","56.65","FORT MCMURRAY A","3062697","2013-11-05 09:00","2013","11","05","09:00","-15.3","","-17.1","","86","","","","10","","13","","16.1","","97.11","","","","-23","","NA"
"-111.22","56.65","FORT MCMURRAY A","3062697","2013-11-05 10:00","2013","11","05","10:00","-14.3","","-16.4","","84","","","","10","","13","","16.1","","97.11","","","","-21","","NA"
"-111.22","56.65","FORT MCMURRAY A","3062697","2013-11-05 11:00","2013","11","05","11:00","-12.0","","-14.5","","82","","","","11","","9","","16.1","","97.12","","","","-17","","NA"
"-111.22","56.65","FORT MCMURRAY A","3062697","2013-11-05 12:00","2013","11","05","12:00","-8.9","","-12.0","","79","","","","10","","13","","16.1","","97.10","","","","-15","","NA"
"-111.22","56.65","FORT MCMURRAY A","3062697","2013-11-05 13:00","2013","11","05","13:00","-5.8","","-10.2","","71","","","","10","","11","","16.1","","97.06","","","","-11","","NA"
"-111.22","56.65","FORT MCMURRAY A","3062697","2013-11-05 14:00","2013","11","05","14:00","-3.0","","-9.3","","62","","","","10","","15","","16.1","","96.98","","","","-8","","NA"
"-111.22","56.65","FORT MCMURRAY A","3062697","2013-11-05 15:00","2013","11","05","15:00","-1.2","","-9.4","","54","","","","12","","17","","16.1","","96.94","","","","-6","","NA"
"-111.22","56.65","FORT MCMURRAY A","3062697","2013-11-05 16:00","2013","11","05","16:00","-1.4","","-9.1","","56","","","","12","","21","","16.1","","96.91","","","","-7","","NA"
"-111.22","56.65","FORT MCMURRAY A","3062697","2013-11-05 17:00","2013","11","05","17:00","-2.9","","-9.1","","63","","","","12","","15","","16.1","","96.91","","","","-8","","NA"
"-111.22","56.65","FORT MCMURRAY A","3062697","2013-11-05 18:00","2013","11","05","18:00","-4.1","","-9.4","","67","","","","12","","15","","16.1","","96.90","","","","-9","","NA"
"-111.22","56.65","FORT MCMURRAY A","3062697","2013-11-05 19:00","2013","11","05","19:00","-5.1","","-9.6","","71","","","","12","","15","","16.1","","96.89","","","","-11","","NA"
"-111.22","56.65","FORT MCMURRAY A","3062697","2013-11-05 20:00","2013","11","05","20:00","-6.3","","-9.7","","77","","","","12","","11","","16.1","","96.90","","","","-11","","NA"
"-111.22","56.65","FORT MCMURRAY A","3062697","2013-11-05 21:00","2013","11","05","21:00","-5.9","","-9.1","","78","","","","11","","15","","16.1","","96.88","","","","-12","","NA"
"-111.22","56.65","FORT MCMURRAY A","3062697","2013-11-05 22:00","2013","11","05","22:00","-5.8","","-9.5","","75","","","","11","","13","","16.1","","96.87","","","","-11","","NA"
"-111.22","56.65","FORT MCMURRAY A","3062697","2013-11-05 23:00","2013","11","05","23:00","-5.4","","-10.1","","70","","","","12","","11","","16.1","","96.88","","","","-10","","NA"
"-111.22","56.65","FORT MCMURRAY A","3062697","2013-11-06 00:00","2013","11","06","00:00","-5.6","","-10.7","","67","","","","12","","13","","16.1","","96.87","","","","-11","","NA"
"-111.22","56.65","FORT MCMURRAY A","3062697","2013-11-06 01:00","2013","11","06","01:00","-5.7","","-11.1","","66","","","","12","","15","","16.1","","96.87","","","","-11","","NA"
"-111.22","56.65","FORT MCMURRAY A","3062697","2013-11-06 02:00","2013","11","06","02:00","-5.8","","-11.0","","67","","","","13","","13","","16.1","","96.87","","","","-11","","NA"
"-111.22","56.65","FORT MCMURRAY A","3062697","2013-11-06 03:00","2013","11","06","03:00","-6.4","","-10.2","","75","","","","13","","9","","16.1","","96.86","","","","-11","","NA"
"-111.22","56.65","FORT MCMURRAY A","3062697","2013-11-06 04:00","2013","11","06","04:00","-7.0","","-10.2","","78","","","","11","","9","","16.1","","96.86","","","","-11","","NA"
"-111.22","56.65","FORT MCMURRAY A","3062697","2013-11-06 05:00","2013","11","06","05:00","-7.6","","-10.5","","80","","","","11","","9","","16.1","","96.85","","","","-12","","NA"
"-111.22","56.65","FORT MCMURRAY A","3062697","2013-11-06 06:00","2013","11","06","06:00","-7.1","","-10.2","","79","","","","11","","13","","16.1","","96.88","","","","-13","","NA"
"-111.22","56.65","FORT MCMURRAY A","3062697","2013-11-06 07:00","2013","11","06","07:00","-7.5","","-9.9","","83","","","","11","","11","","16.1","","96.91","","","","-13","","NA"
"-111.22","56.65","FORT MCMURRAY A","3062697","2013-11-06 08:00","2013","11","06","08:00","-8.1","","-10.0","","86","","","","11","","8","","16.1","","96.92","","","","-12","","NA"
"-111.22","56.65","FORT MCMURRAY A","3062697","2013-11-06 09:00","2013","11","06","09:00","-8.1","","-9.8","","88","","","","10","","5","","16.1","","96.95","","","","-11","","NA"
"-111.22","56.65","FORT MCMURRAY A","3062697","2013-11-06 10:00","2013","11","06","10:00","-6.4","","-8.8","","83","","","","9","","4","","16.1","","96.99","","","","-8","","NA"
"-111.22","56.65","FORT MCMURRAY A","3062697","2013-11-06 11:00","2013","11","06","11:00","-5.0","","-7.8","","81","","","","12","","5","","16.1","","97.00","","","","-7","","NA"
"-111.22","56.65","FORT MCMURRAY A","3062697","2013-11-06 12:00","2013","11","06","12:00","-3.0","","-6.7","","76","","","","","M","4","","16.1","","97.03","","","","-5","","NA"
"-111.22","56.65","FORT MCMURRAY A","3062697","2013-11-06 13:00","2013","11","06","13:00","-1.5","","-5.8","","72","","","","","M","4","","16.1","","97.04","","","","-3","","NA"
"-111.22","56.65","FORT MCMURRAY A","3062697","2013-11-06 14:00","2013","11","06","14:00","2.2","","-4.5","","61","","","","23","","9","","16.1","","97.03","","","","","","NA"
"-111.22","56.65","FORT MCMURRAY A","3062697","2013-11-06 15:00","2013","11","06","15:00","2.4","","-4.4","","61","","","","25","","8","","16.1","","97.05","","","","","","NA"
"-111.22","56.65","FORT MCMURRAY A","3062697","2013-11-06 16:00","2013","11","06","16:00","1.3","","-4.5","","65","","","","","","0","","16.1","","97.08","","","","","","NA"
"-111.22","56.65","FORT MCMURRAY A","3062697","2013-11-06 17:00","2013","11","06","17:00","1.1","","-4.0","","69","","","","26","","9","","16.1","","97.11","","","","","","NA"
"-111.22","56.65","FORT MCMURRAY A","3062697","2013-11-06 18:00","2013","11","06","18:00","1.6","","-4.0","","67","","","","22","","9","","16.1","","97.13","","","","","","NA"
"-111.22","56.65","FORT MCMURRAY A","3062697","2013-11-06 19:00","2013","11","06","19:00","1.3","","-4.4","","66","","","","26","","13","","16.1","","97.19","","","","","","NA"
"-111.22","56.65","FORT MCMURRAY A","3062697","2013-11-06 20:00","2013","11","06","20:00","1.3","","-5.0","","63","","","","26","","18","","16.1","","97.22","","","","","","NA"
"-111.22","56.65","FORT MCMURRAY A","3062697","2013-11-06 21:00","2013","11","06","21:00","0.9","","-5.4","","63","","","","27","","13","","16.1","","97.26","","","","","","NA"
"-111.22","56.65","FORT MCMURRAY A","3062697","2013-11-06 22:00","2013","11","06","22:00","-0.1","","-5.8","","66","","","","31","","24","","16.1","","97.31","","","","-6","","NA"
"-111.22","56.65","FORT MCMURRAY A","3062697","2013-11-06 23:00","2013","11","06","23:00","-1.3","","-6.5","","68","","","","31","","18","","16.1","","97.38","","","","-7","","NA"
"-111.22","56.65","FORT MCMURRAY A","3062697","2013-11-07 00:00","2013","11","07","00:00","-2.2","","-7.1","","69","","","","31","","13","","16.1","","97.43","","","","-7","","NA"
"-111.22","56.65","FORT MCMURRAY A","3062697","2013-11-07 01:00","2013","11","07","01:00","-3.2","","-7.2","","74","","","","28","","11","","16.1","","97.47","","","","-7","","NA"
"-111.22","56.65","FORT MCMURRAY A","3062697","2013-11-07 02:00","2013","11","07","02:00","-3.6","","-7.2","","76","","","","28","","9","","16.1","","97.52","","","","-7","","NA"
"-111.22","56.65","FORT MCMURRAY A","3062697","2013-11-07 03:00","2013","11","07","03:00","-4.2","","-7.5","","78","","","","25","","9","","16.1","","97.55","","","","-8","","NA"
"-111.22","56.65","FORT MCMURRAY A","3062697","2013-11-07 04:00","2013","11","07","04:00","-4.4","","-7.7","","78","","","","27","","15","","16.1","","97.56","","","","-10","","NA"
"-111.22","56.65","FORT MCMURRAY A","3062697","2013-11-07 05:00","2013","11","07","05:00","-4.8","","-7.9","","79","","","","28","","13","","16.1","","97.56","","","","-10","","NA"
"-111.22","56.65","FORT MCMURRAY A","3062697","2013-11-07 06:00","2013","11","07","06:00","-5.0","","-7.9","","80","","","","27","","9","","16.1","","97.58","","","","-9","","NA"
"-111.22","56.65","FORT MCMURRAY A","3062697","2013-11-07 07:00","2013","11","07","07:00","-5.5","","-8.2","","81","","","","24","","9","","16.1","","97.60","","","","-10","","NA"
"-111.22","56.65","FORT MCMURRAY A","3062697","2013-11-07 08:00","2013","11","07","08:00","-6.3","","-8.7","","83","","","","25","","9","","16.1","","97.58","","","","-11","","NA"
"-111.22","56.65","FORT MCMURRAY A","3062697","2013-11-07 09:00","2013","11","07","09:00","-8.3","","-9.8","","89","","","","22","","9","","16.1","","97.57","","","","-13","","NA"
"-111.22","56.65","FORT MCMURRAY A","3062697","2013-11-07 10:00","2013","11","07","10:00","-8.9","","-10.4","","89","","","","24","","8","","16.1","","97.59","","","","-13","","NA"
"-111.22","56.65","FORT MCMURRAY A","3062697","2013-11-07 11:00","2013","11","07","11:00","-7.8","","-9.8","","86","","","","27","","5","","16.1","","97.55","","","","-10","","NA"
"-111.22","56.65","FORT MCMURRAY A","3062697","2013-11-07 12:00","2013","11","07","12:00","-6.1","","-8.9","","81","","","","","","0","","16.1","","97.49","","","","","","NA"
"-111.22","56.65","FORT MCMURRAY A","3062697","2013-11-07 13:00","2013","11","07","13:00","-4.4","","-8.1","","75","","","","","M","5","","16.1","","97.41","","","","-7","","NA"
"-111.22","56.65","FORT MCMURRAY A","3062697","2013-11-07 14:00","2013","11","07","14:00","-3.7","","-8.0","","72","","","","","M","4","","16.1","","97.32","","","","-5","","NA"
"-111.22","56.65","FORT MCMURRAY A","3062697","2013-11-07 15:00","2013","11","07","15:00","-2.5","","-7.6","","68","","","","7","","8","","16.1","","97.25","","","","-6","","NA"
"-111.22","56.65","FORT MCMURRAY A","3062697","2013-11-07 16:00","2013","11","07","16:00","-2.6","","-7.7","","68","","","","8","","11","","16.1","","97.17","","","","-7","","NA"
"-111.22","56.65","FORT MCMURRAY A","3062697","2013-11-07 17:00","2013","11","07","17:00","-4.3","","-8.1","","75","","","","8","","9","","16.1","","97.11","","","","-8","","NA"
"-111.22","56.65","FORT MCMURRAY A","3062697","2013-11-07 18:00","2013","11","07","18:00","-5.0","","-8.1","","79","","","","10","","9","","12.9","","97.04","","","","-9","","NA"
"-111.22","56.65","FORT MCMURRAY A","3062697","2013-11-07 19:00","2013","11","07","19:00","-5.2","","-8.6","","77","","","","10","","11","","16.1","","96.99","","","","-10","","NA"
"-111.22","56.65","FORT MCMURRAY A","3062697","2013-11-07 20:00","2013","11","07","20:00","-5.1","","-8.9","","75","","","","10","","13","","16.1","","96.94","","","","-10","","NA"
"-111.22","56.65","FORT MCMURRAY A","3062697","2013-11-07 21:00","2013","11","07","21:00","-5.1","","-9.0","","74","","","","9","","13","","16.1","","96.90","","","","-10","","NA"
"-111.22","56.65","FORT MCMURRAY A","3062697","2013-11-07 22:00","2013","11","07","22:00","-5.2","","-9.3","","73","","","","10","","15","","16.1","","96.86","","","","-11","","NA"
"-111.22","56.65","FORT MCMURRAY A","3062697","2013-11-07 23:00","2013","11","07","23:00","-5.3","","-9.4","","73","","","","9","","13","","16.1","","96.84","","","","-10","","NA"
"-111.22","56.65","FORT MCMURRAY A","3062697","2013-11-08 00:00","2013","11","08","00:00","-5.4","","-9.5","","73","","","","8","","11","","16.1","","96.81","","","","-10","","NA"
"-111.22","56.65","FORT MCMURRAY A","3062697","2013-11-08 01:00","2013","11","08","01:00","-5.4","","-9.7","","72","","","","8","","11","","16.1","","96.78","","","","-10","","NA"
"-111.22","56.65","FORT MCMURRAY A","3062697","2013-11-08 02:00","2013","11","08","02:00","-5.6","","-10.0","","71","","","","8","","15","","16.1","","96.77","","","","-11","","NA"
"-111.22","56.65","FORT MCMURRAY A","3062697","2013-11-08 03:00","2013","11","08","03:00","-5.7","","-9.6","","74","","","","8","","15","","16.1","","96.74","","","","-11","","NA"
"-111.22","56.65","FORT MCMURRAY A","3062697","2013-11-08 04:00","2013","11","08","04:00","-5.7","","-9.3","","76","","","","8","","13","","16.1","","96.73","","","","-11","","NA"
"-111.22","56.65","FORT MCMURRAY A","3062697","2013-11-08 05:00","2013","11","08","05:00","-5.6","","-9.4","","75","","","","8","","15","","16.1","","96.73","","","","-11","","NA"
"-111.22","56.65","FORT MCMURRAY A","3062697","2013-11-08 06:00","2013","11","08","06:00","-5.6","","-9.2","","76","","","","8","","15","","16.1","","96.75","","","","-11","","NA"
"-111.22","56.65","FORT MCMURRAY A","3062697","2013-11-08 07:00","2013","11","08","07:00","-5.6","","-9.2","","76","","","","8","","13","","16.1","","96.74","","","","-11","","NA"
"-111.22","56.65","FORT MCMURRAY A","3062697","2013-11-08 08:00","2013","11","08","08:00","-5.8","","-9.5","","75","","","","8","","13","","16.1","","96.77","","","","-11","","NA"
"-111.22","56.65","FORT MCMURRAY A","3062697","2013-11-08 09:00","2013","11","08","09:00","-5.9","","-9.6","","75","","","","9","","11","","16.1","","96.81","","","","-11","","NA"
"-111.22","56.65","FORT MCMURRAY A","3062697","2013-11-08 10:00","2013","11","08","10:00","-5.7","","-9.5","","75","","","","8","","13","","16.1","","96.84","","","","-11","","NA"
"-111.22","56.65","FORT MCMURRAY A","3062697","2013-11-08 11:00","2013","11","08","11:00","-5.1","","-9.2","","73","","","","8","","13","","16.1","","96.88","","","","-10","","NA"
"-111.22","56.65","FORT MCMURRAY A","3062697","2013-11-08 12:00","2013","11","08","12:00","-4.8","","-9.3","","71","","","","6","","8","","16.1","","96.93","","","","-8","","NA"
"-111.22","56.65","FORT MCMURRAY A","3062697","2013-11-08 13:00","2013","11","08","13:00","-4.3","","-9.6","","67","","","","7","","5","","16.1","","96.93","","","","-6","","NA"
"-111.22","56.65","FORT MCMURRAY A","3062697","2013-11-08 14:00","2013","11","08","14:00","-3.8","","-10.2","","61","","","","5","","8","","16.1","","96.96","","","","-7","","NA"
"-111.22","56.65","FORT MCMURRAY A","3062697","2013-11-08 15:00","2013","11","08","15:00","-3.2","","-10.4","","58","","","","8","","8","","16.1","","96.97","","","","-6","","NA"
"-111.22","56.65","FORT MCMURRAY A","3062697","2013-11-08 16:00","2013","11","08","16:00","-3.3","","-10.7","","57","","","","10","","8","","16.1","","96.97","","","","-7","","NA"
"-111.22","56.65","FORT MCMURRAY A","3062697","2013-11-08 17:00","2013","11","08","17:00","-3.7","","-11.0","","57","","","","","","0","","16.1","","97.00","","","","","","NA"
"-111.22","56.65","FORT MCMURRAY A","3062697","2013-11-08 18:00","2013","11","08","18:00","-6.1","","-11.3","","67","","","","","","0","","16.1","","97.02","","","","","","NA"
"-111.22","56.65","FORT MCMURRAY A","3062697","2013-11-08 19:00","2013","11","08","19:00","-7.9","","-11.7","","75","","","","","","0","","16.1","","97.08","","","","","","NA"
"-111.22","56.65","FORT MCMURRAY A","3062697","2013-11-08 20:00","2013","11","08","20:00","-8.6","","-11.2","","82","","","","","","0","","16.1","","97.10","","","","","","NA"
"-111.22","56.65","FORT MCMURRAY A","3062697","2013-11-08 21:00","2013","11","08","21:00","-7.4","","-10.5","","79","","","","16","","8","","16.1","","97.08","","","","-11","","NA"
"-111.22","56.65","FORT MCMURRAY A","3062697","2013-11-08 22:00","2013","11","08","22:00","-7.0","","-10.7","","75","","","","14","","8","","16.1","","97.09","","","","-11","","NA"
"-111.22","56.65","FORT MCMURRAY A","3062697","2013-11-08 23:00","2013","11","08","23:00","-6.1","","-10.3","","72","","","","15","","9","","16.1","","97.11","","","","-10","","NA"
"-111.22","56.65","FORT MCMURRAY A","3062697","2013-11-09 00:00","2013","11","09","00:00","-5.3","","-9.7","","72","","","","14","","9","","16.1","","97.12","","","","-9","","NA"
"-111.22","56.65","FORT MCMURRAY A","3062697","2013-11-09 01:00","2013","11","09","01:00","-5.9","","-7.5","","89","","","","14","","8","","2.4","","97.12","","","","-10","","NA"
"-111.22","56.65","FORT MCMURRAY A","3062697","2013-11-09 02:00","2013","11","09","02:00","-6.1","","-7.1","","93","","","","10","","8","","1.6","","97.07","","","","-10","","NA"
"-111.22","56.65","FORT MCMURRAY A","3062697","2013-11-09 03:00","2013","11","09","03:00","-6.2","","-7.0","","94","","","","10","","8","","1.6","","97.07","","","","-10","","NA"
"-111.22","56.65","FORT MCMURRAY A","3062697","2013-11-09 04:00","2013","11","09","04:00","-6.4","","-7.3","","94","","","","7","","4","","1.6","","97.09","","","","-8","","NA"
"-111.22","56.65","FORT MCMURRAY A","3062697","2013-11-09 05:00","2013","11","09","05:00","-6.6","","-7.3","","95","","","","32","","5","","16.1","","97.14","","","","-9","","NA"
"-111.22","56.65","FORT MCMURRAY A","3062697","2013-11-09 06:00","2013","11","09","06:00","-6.6","","-7.1","","96","","","","31","","11","","16.1","","97.22","","","","-12","","NA"
"-111.22","56.65","FORT MCMURRAY A","3062697","2013-11-09 07:00","2013","11","09","07:00","-7.3","","-8.8","","89","","","","33","","26","","6.4","","97.33","","","","-15","","NA"
"-111.22","56.65","FORT MCMURRAY A","3062697","2013-11-09 08:00","2013","11","09","08:00","-9.0","","-10.8","","87","","","","34","","26","","2.8","","97.50","","","","-18","","NA"
"-111.22","56.65","FORT MCMURRAY A","3062697","2013-11-09 09:00","2013","11","09","09:00","-9.8","","-12.0","","84","","","","33","","22","","16.1","","97.59","","","","-18","","NA"
"-111.22","56.65","FORT MCMURRAY A","3062697","2013-11-09 10:00","2013","11","09","10:00","-10.7","","-12.6","","86","","","","32","","17","","12.9","","97.71","","","","-18","","NA"
"-111.22","56.65","FORT MCMURRAY A","3062697","2013-11-09 11:00","2013","11","09","11:00","-10.5","","-13.4","","80","","","","34","","18","","16.1","","97.82","","","","-18","","NA"
"-111.22","56.65","FORT MCMURRAY A","3062697","2013-11-09 12:00","2013","11","09","12:00","-10.2","","-12.3","","85","","","","34","","11","","4.8","","97.90","","","","-16","","NA"
"-111.22","56.65","FORT MCMURRAY A","3062697","2013-11-09 13:00","2013","11","09","13:00","-10.3","","-13.6","","77","","","","33","","18","","16.1","","97.96","","","","-18","","NA"
"-111.22","56.65","FORT MCMURRAY A","3062697","2013-11-09 14:00","2013","11","09","14:00","-10.0","","-12.3","","83","","","","36","","13","","4.8","","97.97","","","","-16","","NA"
"-111.22","56.65","FORT MCMURRAY A","3062697","2013-11-09 15:00","2013","11","09","15:00","-10.5","","-12.9","","83","","","","35","","17","","8.1","","98.04","","","","-18","","NA"
"-111.22","56.65","FORT MCMURRAY A","3062697","2013-11-09 16:00","2013","11","09","16:00","-10.9","","-14.3","","76","","","","33","","18","","16.1","","98.09","","","","-19","","NA"
"-111.22","56.65","FORT MCMURRAY A","3062697","2013-11-09 17:00","2013","11","09","17:00","-11.4","","-13.6","","84","","","","31","","8","","11.3","","98.14","","","","-16","","NA"
"-111.22","56.65","FORT MCMURRAY A","3062697","2013-11-09 18:00","2013","11","09","18:00","-12.0","","-14.1","","85","","","","32","","13","","12.9","","98.18","","","","-19","","NA"
"-111.22","56.65","FORT MCMURRAY A","3062697","2013-11-09 19:00","2013","11","09","19:00","-13.7","","-16.4","","80","","","","32","","13","","16.1","","98.28","","","","-21","","NA"
"-111.22","56.65","FORT MCMURRAY A","3062697","2013-11-09 20:00","2013","11","09","20:00","-14.6","","-17.0","","83","","","","32","","9","","16.1","","98.34","","","","-20","","NA"
"-111.22","56.65","FORT MCMURRAY A","3062697","2013-11-09 21:00","2013","11","09","21:00","-15.1","","-16.9","","87","","","","30","","9","","16.1","","98.40","","","","-21","","NA"
"-111.22","56.65","FORT MCMURRAY A","3062697","2013-11-09 22:00","2013","11","09","22:00","-15.3","","-17.2","","86","","","","31","","11","","16.1","","98.47","","","","-22","","NA"
"-111.22","56.65","FORT MCMURRAY A","3062697","2013-11-09 23:00","2013","11","09","23:00","-16.8","","-18.4","","87","","","","25","","8","","16.1","","98.52","","","","-22","","NA"
"-111.22","56.65","FORT MCMURRAY A","3062697","2013-11-10 00:00","2013","11","10","00:00","-17.7","","-19.3","","87","","","","25","","8","","9.7","","98.54","","","","-24","","NA"
"-111.22","56.65","FORT MCMURRAY A","3062697","2013-11-10 01:00","2013","11","10","01:00","-17.6","","-19.4","","86","","","","26","","8","","6.4","","98.62","","","","-23","","NA"
"-111.22","56.65","FORT MCMURRAY A","3062697","2013-11-10 02:00","2013","11","10","02:00","-17.3","","-19.1","","86","","","","24","","8","","2.0","","98.64","","","","-23","","NA"
"-111.22","56.65","FORT MCMURRAY A","3062697","2013-11-10 03:00","2013","11","10","03:00","-19.5","","-21.4","","85","","","","22","","4","","16.1","","98.67","","","","-23","","NA"
"-111.22","56.65","FORT MCMURRAY A","3062697","2013-11-10 04:00","2013","11","10","04:00","-19.7","","-21.9","","83","","","","21","","8","","12.9","","98.68","","","","-26","","NA"
"-111.22","56.65","FORT MCMURRAY A","3062697","2013-11-10 05:00","2013","11","10","05:00","-22.1","","-24.5","","82","","","","21","","5","","16.1","","98.68","","","","-27","","NA"
"-111.22","56.65","FORT MCMURRAY A","3062697","2013-11-10 06:00","2013","11","10","06:00","-22.6","","-25.2","","80","","","","","M","4","","16.1","","98.69","","","","-26","","NA"
"-111.22","56.65","FORT MCMURRAY A","3062697","2013-11-10 07:00","2013","11","10","07:00","-22.9","","-25.1","","83","","","","21","","9","","16.1","","98.73","","","","-30","","NA"
"-111.22","56.65","FORT MCMURRAY A","3062697","2013-11-10 08:00","2013","11","10","08:00","-24.1","","-26.7","","79","","","","","","0","","16.1","","98.72","","","","","","NA"
"-111.22","56.65","FORT MCMURRAY A","3062697","2013-11-10 09:00","2013","11","10","09:00","-24.6","","-27.2","","79","","","","15","","5","","16.1","","98.73","","","","-29","","NA"
"-111.22","56.65","FORT MCMURRAY A","3062697","2013-11-10 10:00","2013","11","10","10:00","-23.3","","-25.5","","82","","","","","M","4","","16.1","","98.72","","","","-27","","NA"
"-111.22","56.65","FORT MCMURRAY A","3062697","2013-11-10 11:00","2013","11","10","11:00","-20.4","","-22.4","","85","","","","","M","4","","2.0","","98.74","","","","-24","","NA"
"-111.22","56.65","FORT MCMURRAY A","3062697","2013-11-10 12:00","2013","11","10","12:00","-17.3","","-19.3","","85","","","","","","0","","16.1","","98.73","","","","","","NA"
"-111.22","56.65","FORT MCMURRAY A","3062697","2013-11-10 13:00","2013","11","10","13:00","-15.0","","-18.0","","79","","","","","M","4","","16.1","","98.67","","","","-18","","NA"
"-111.22","56.65","FORT MCMURRAY A","3062697","2013-11-10 14:00","2013","11","10","14:00","-12.4","","-16.4","","73","","","","5","","8","","16.1","","98.58","","","","-17","","NA"
"-111.22","56.65","FORT MCMURRAY A","3062697","2013-11-10 15:00","2013","11","10","15:00","-11.2","","-16.5","","65","","","","18","","11","","16.1","","98.50","","","","-17","","NA"
"-111.22","56.65","FORT MCMURRAY A","3062697","2013-11-10 16:00","2013","11","10","16:00","-11.1","","-16.2","","66","","","","17","","11","","16.1","","98.46","","","","-17","","NA"
"-111.22","56.65","FORT MCMURRAY A","3062697","2013-11-10 17:00","2013","11","10","17:00","-12.4","","-16.3","","73","","","","14","","9","","16.1","","98.37","","","","-18","","NA"
"-111.22","56.65","FORT MCMURRAY A","3062697","2013-11-10 18:00","2013","11","10","18:00","-14.3","","-17.3","","78","","","","14","","11","","16.1","","98.33","","","","-21","","NA"
"-111.22","56.65","FORT MCMURRAY A","3062697","2013-11-10 19:00","2013","11","10","19:00","-15.4","","-18.0","","81","","","","13","","11","","16.1","","98.30","","","","-22","","NA"
"-111.22","56.65","FORT MCMURRAY A","3062697","2013-11-10 20:00","2013","11","10","20:00","-16.4","","-18.7","","83","","","","11","","13","","16.1","","98.29","","","","-24","","NA"
"-111.22","56.65","FORT MCMURRAY A","3062697","2013-11-10 21:00","2013","11","10","21:00","-17.1","","-19.3","","83","","","","11","","15","","16.1","","98.24","","","","-26","","NA"
"-111.22","56.65","FORT MCMURRAY A","3062697","2013-11-10 22:00","2013","11","10","22:00","-17.6","","-19.6","","85","","","","11","","11","","16.1","","98.20","","","","-25","","NA"
"-111.22","56.65","FORT MCMURRAY A","3062697","2013-11-10 23:00","2013","11","10","23:00","-18.3","","-20.1","","86","","","","11","","11","","16.1","","98.12","","","","-26","","NA"
"-111.22","56.65","FORT MCMURRAY A","3062697","2013-11-11 00:00","2013","11","11","00:00","-18.5","","-20.2","","87","","","","10","","11","","16.1","","98.07","","","","-26","","NA"
"-111.22","56.65","FORT MCMURRAY A","3062697","2013-11-11 01:00","2013","11","11","01:00","-17.7","","-19.5","","86","","","","11","","11","","16.1","","98.05","","","","-25","","NA"
"-111.22","56.65","FORT MCMURRAY A","3062697","2013-11-11 02:00","2013","11","11","02:00","-17.9","","-19.7","","86","","","","11","","13","","16.1","","98.02","","","","-26","","NA"
"-111.22","56.65","FORT MCMURRAY A","3062697","2013-11-11 03:00","2013","11","11","03:00","-17.2","","-19.0","","86","","","","11","","13","","16.1","","97.96","","","","-25","","NA"
"-111.22","56.65","FORT MCMURRAY A","3062697","2013-11-11 04:00","2013","11","11","04:00","-17.5","","-19.3","","86","","","","10","","9","","16.1","","97.96","","","","-24","","NA"
"-111.22","56.65","FORT MCMURRAY A","3062697","2013-11-11 05:00","2013","11","11","05:00","-16.7","","-18.4","","87","","","","11","","11","","16.1","","97.86","","","","-24","","NA"
"-111.22","56.65","FORT MCMURRAY A","3062697","2013-11-11 06:00","2013","11","11","06:00","-16.6","","-18.3","","87","","","","11","","9","","16.1","","97.84","","","","-23","","NA"
"-111.22","56.65","FORT MCMURRAY A","3062697","2013-11-11 07:00","2013","11","11","07:00","-15.7","","-17.4","","87","","","","12","","8","","16.1","","97.81","","","","-21","","NA"
"-111.22","56.65","FORT MCMURRAY A","3062697","2013-11-11 08:00","2013","11","11","08:00","-15.9","","-17.6","","87","","","","10","","8","","16.1","","97.74","","","","-21","","NA"
"-111.22","56.65","FORT MCMURRAY A","3062697","2013-11-11 09:00","2013","11","11","09:00","-15.3","","-16.9","","87","","","","11","","9","","16.1","","97.75","","","","-21","","NA"
"-111.22","56.65","FORT MCMURRAY A","3062697","2013-11-11 10:00","2013","11","11","10:00","-13.7","","-15.3","","88","","","","10","","9","","16.1","","97.70","","","","-19","","NA"
"-111.22","56.65","FORT MCMURRAY A","3062697","2013-11-11 11:00","2013","11","11","11:00","-10.6","","-12.2","","88","","","","9","","5","","16.1","","97.67","","","","-14","","NA"
"-111.22","56.65","FORT MCMURRAY A","3062697","2013-11-11 12:00","2013","11","11","12:00","-6.7","","-8.8","","85","","","","9","","8","","16.1","","97.65","","","","-11","","NA"
"-111.22","56.65","FORT MCMURRAY A","3062697","2013-11-11 13:00","2013","11","11","13:00","-6.1","","-9.5","","77","","","","","","0","","16.1","","97.61","","","","","","NA"
"-111.22","56.65","FORT MCMURRAY A","3062697","2013-11-11 14:00","2013","11","11","14:00","-0.8","","-7.2","","62","","","","24","","17","","16.1","","97.60","","","","-6","","NA"
"-111.22","56.65","FORT MCMURRAY A","3062697","2013-11-11 15:00","2013","11","11","15:00","-0.4","","-7.1","","61","","","","25","","13","","16.1","","97.57","","","","-5","","NA"
"-111.22","56.65","FORT MCMURRAY A","3062697","2013-11-11 16:00","2013","11","11","16:00","-0.2","","-6.9","","61","","","","25","","15","","16.1","","97.55","","","","-5","","NA"
"-111.22","56.65","FORT MCMURRAY A","3062697","2013-11-11 17:00","2013","11","11","17:00","-0.7","","-7.0","","63","","","","24","","9","","16.1","","97.55","","","","-4","","NA"
"-111.22","56.65","FORT MCMURRAY A","3062697","2013-11-11 18:00","2013","11","11","18:00","-2.0","","-7.2","","68","","","","19","","5","","16.1","","97.53","","","","-4","","NA"
"-111.22","56.65","FORT MCMURRAY A","3062697","2013-11-11 19:00","2013","11","11","19:00","-3.3","","-7.9","","71","","","","27","","8","","16.1","","97.57","","","","-7","","NA"
"-111.22","56.65","FORT MCMURRAY A","3062697","2013-11-11 20:00","2013","11","11","20:00","-3.6","","-7.8","","73","","","","","","0","","16.1","","97.54","","","","","","NA"
"-111.22","56.65","FORT MCMURRAY A","3062697","2013-11-11 21:00","2013","11","11","21:00","-5.3","","-8.7","","77","","","","","","0","","16.1","","97.55","","","","","","NA"
"-111.22","56.65","FORT MCMURRAY A","3062697","2013-11-11 22:00","2013","11","11","22:00","-5.9","","-8.5","","82","","","","19","","5","","16.1","","97.51","","","","-8","","NA"
"-111.22","56.65","FORT MCMURRAY A","3062697","2013-11-11 23:00","2013","11","11","23:00","-8.7","","-10.6","","87","","","","","M","4","","16.1","","97.52","","","","-11","","NA"
"-111.22","56.65","FORT MCMURRAY A","3062697","2013-11-12 00:00","2013","11","12","00:00","-8.5","","-10.8","","84","","","","7","","4","","16.1","","97.51","","","","-11","","NA"
"-111.22","56.65","FORT MCMURRAY A","3062697","2013-11-12 01:00","2013","11","12","01:00","-10.5","","-12.4","","86","","","","8","","9","","16.1","","97.50","","","","-15","","NA"
"-111.22","56.65","FORT MCMURRAY A","3062697","2013-11-12 02:00","2013","11","12","02:00","-11.1","","-12.0","","93","","","","13","","5","","16.1","","97.40","","","","-14","","NA"
"-111.22","56.65","FORT MCMURRAY A","3062697","2013-11-12 03:00","2013","11","12","03:00","-11.6","","-12.8","","91","","","","11","","11","","16.1","","97.39","","","","-18","","NA"
"-111.22","56.65","FORT MCMURRAY A","3062697","2013-11-12 04:00","2013","11","12","04:00","-12.0","","-13.1","","92","","","","11","","9","","16.1","","97.30","","","","-17","","NA"
"-111.22","56.65","FORT MCMURRAY A","3062697","2013-11-12 05:00","2013","11","12","05:00","-12.2","","-13.3","","92","","","","11","","5","","16.1","","97.26","","","","-15","","NA"
"-111.22","56.65","FORT MCMURRAY A","3062697","2013-11-12 06:00","2013","11","12","06:00","-13.1","","-14.3","","91","","","","13","","9","","16.1","","97.20","","","","-19","","NA"
"-111.22","56.65","FORT MCMURRAY A","3062697","2013-11-12 07:00","2013","11","12","07:00","-14.0","","-15.5","","89","","","","11","","4","","14.5","","97.11","","","","-17","","NA"
"-111.22","56.65","FORT MCMURRAY A","3062697","2013-11-12 08:00","2013","11","12","08:00","-13.2","","-14.5","","90","","","","7","","8","","16.1","","97.01","","","","-18","","NA"
"-111.22","56.65","FORT MCMURRAY A","3062697","2013-11-12 09:00","2013","11","12","09:00","-12.7","","-14.1","","90","","","","10","","5","","16.1","","96.97","","","","-16","","NA"
"-111.22","56.65","FORT MCMURRAY A","3062697","2013-11-12 10:00","2013","11","12","10:00","-10.6","","-12.2","","88","","","","","M","4","","16.1","","96.87","","","","-13","","NA"
"-111.22","56.65","FORT MCMURRAY A","3062697","2013-11-12 11:00","2013","11","12","11:00","-8.5","","-10.6","","85","","","","8","","8","","16.1","","96.81","","","","-13","","NA"
"-111.22","56.65","FORT MCMURRAY A","3062697","2013-11-12 12:00","2013","11","12","12:00","-6.8","","-9.2","","83","","","","13","","5","","16.1","","96.74","","","","-9","","NA"
"-111.22","56.65","FORT MCMURRAY A","3062697","2013-11-12 13:00","2013","11","12","13:00","-5.9","","-8.7","","81","","","","","M","4","","16.1","","96.63","","","","-8","","NA"
"-111.22","56.65","FORT MCMURRAY A","3062697","2013-11-12 14:00","2013","11","12","14:00","-4.8","","-8.2","","77","","","","6","","5","","16.1","","96.54","","","","-7","","NA"
"-111.22","56.65","FORT MCMURRAY A","3062697","2013-11-12 15:00","2013","11","12","15:00","-3.8","","-7.6","","75","","","","","M","4","","16.1","","96.47","","","","-5","","NA"
"-111.22","56.65","FORT MCMURRAY A","3062697","2013-11-12 16:00","2013","11","12","16:00","-3.9","","-7.2","","78","","","","32","","5","","16.1","","96.46","","","","-6","","NA"
"-111.22","56.65","FORT MCMURRAY A","3062697","2013-11-12 17:00","2013","11","12","17:00","-3.3","","-6.8","","77","","","","14","","5","","16.1","","96.39","","","","-5","","NA"
"-111.22","56.65","FORT MCMURRAY A","3062697","2013-11-12 18:00","2013","11","12","18:00","-3.2","","-6.6","","78","","","","","","0","","16.1","","96.36","","","","","","NA"
"-111.22","56.65","FORT MCMURRAY A","3062697","2013-11-12 19:00","2013","11","12","19:00","-2.9","","-6.4","","77","","","","17","","8","","16.1","","96.35","","","","-6","","NA"
"-111.22","56.65","FORT MCMURRAY A","3062697","2013-11-12 20:00","2013","11","12","20:00","-2.5","","-5.3","","81","","","","","M","5","","16.1","","96.35","","","","-4","","NA"
"-111.22","56.65","FORT MCMURRAY A","3062697","2013-11-12 21:00","2013","11","12","21:00","-1.6","","-4.6","","80","","","","30","","5","","16.1","","96.31","","","","-3","","NA"
"-111.22","56.65","FORT MCMURRAY A","3062697","2013-11-12 22:00","2013","11","12","22:00","-1.5","","-3.5","","86","","","","11","","5","","16.1","","96.21","","","","-3","","NA"
"-111.22","56.65","FORT MCMURRAY A","3062697","2013-11-12 23:00","2013","11","12","23:00","-2.4","","-4.1","","88","","","","","","0","","16.1","","96.21","","","","","","NA"
"-111.22","56.65","FORT MCMURRAY A","3062697","2013-11-13 00:00","2013","11","13","00:00","-3.5","","-5.3","","87","","","","24","","5","","16.1","","96.20","","","","-6","","NA"
"-111.22","56.65","FORT MCMURRAY A","3062697","2013-11-13 01:00","2013","11","13","01:00","-0.7","","-2.9","","85","","","","25","","21","","16.1","","96.26","","","","-6","","NA"
"-111.22","56.65","FORT MCMURRAY A","3062697","2013-11-13 02:00","2013","11","13","02:00","0.4","","-2.0","","84","","","","25","","24","","16.1","","96.27","","","","","","NA"
"-111.22","56.65","FORT MCMURRAY A","3062697","2013-11-13 03:00","2013","11","13","03:00","1.5","","-1.3","","82","","","","30","","28","","16.1","","96.41","","","","","","NA"
"-111.22","56.65","FORT MCMURRAY A","3062697","2013-11-13 04:00","2013","11","13","04:00","0.3","","-2.4","","82","","","","31","","32","","16.1","","96.52","","","","","","NA"
"-111.22","56.65","FORT MCMURRAY A","3062697","2013-11-13 05:00","2013","11","13","05:00","-0.6","","-3.7","","80","","","","30","","30","","16.1","","96.59","","","","-7","","NA"
"-111.22","56.65","FORT MCMURRAY A","3062697","2013-11-13 06:00","2013","11","13","06:00","-1.6","","-4.6","","80","","","","30","","24","","16.1","","96.65","","","","-8","","NA"
"-111.22","56.65","FORT MCMURRAY A","3062697","2013-11-13 07:00","2013","11","13","07:00","-2.0","","-5.1","","79","","","","29","","30","","16.1","","96.66","","","","-9","","NA"
"-111.22","56.65","FORT MCMURRAY A","3062697","2013-11-13 08:00","2013","11","13","08:00","-2.7","","-5.8","","79","","","","31","","21","","16.1","","96.74","","","","-9","","NA"
"-111.22","56.65","FORT MCMURRAY A","3062697","2013-11-13 09:00","2013","11","13","09:00","-3.2","","-6.7","","77","","","","29","","26","","16.1","","96.78","","","","-10","","NA"
"-111.22","56.65","FORT MCMURRAY A","3062697","2013-11-13 10:00","2013","11","13","10:00","-3.6","","-7.2","","76","","","","30","","28","","16.1","","96.85","","","","-11","","NA"
"-111.22","56.65","FORT MCMURRAY A","3062697","2013-11-13 11:00","2013","11","13","11:00","-3.7","","-7.7","","74","","","","29","","26","","16.1","","96.91","","","","-11","","NA"
"-111.22","56.65","FORT MCMURRAY A","3062697","2013-11-13 12:00","2013","11","13","12:00","-3.6","","-7.9","","72","","","","30","","24","","16.1","","96.98","","","","-10","","NA"
"-111.22","56.65","FORT MCMURRAY A","3062697","2013-11-13 13:00","2013","11","13","13:00","-3.7","","-7.8","","73","","","","31","","21","","16.1","","96.99","","","","-10","","NA"
"-111.22","56.65","FORT MCMURRAY A","3062697","2013-11-13 14:00","2013","11","13","14:00","-3.5","","-7.6","","74","","","","29","","15","","16.1","","96.98","","","","-9","","NA"
"-111.22","56.65","FORT MCMURRAY A","3062697","2013-11-13 15:00","2013","11","13","15:00","-3.5","","-7.6","","73","","","","30","","18","","16.1","","97.02","","","","-9","","NA"
"-111.22","56.65","FORT MCMURRAY A","3062697","2013-11-13 16:00","2013","11","13","16:00","-3.5","","-7.7","","73","","","","31","","17","","16.1","","97.05","","","","-9","","NA"
"-111.22","56.65","FORT MCMURRAY A","3062697","2013-11-13 17:00","2013","11","13","17:00","-3.6","","-7.4","","75","","","","32","","8","","16.1","","97.03","","","","-7","","NA"
"-111.22","56.65","FORT MCMURRAY A","3062697","2013-11-13 18:00","2013","11","13","18:00","-3.8","","-7.4","","76","","","","27","","4","","16.1","","97.02","","","","-5","","NA"
"-111.22","56.65","FORT MCMURRAY A","3062697","2013-11-13 19:00","2013","11","13","19:00","-4.0","","-7.5","","77","","","","24","","8","","16.1","","97.04","","","","-7","","NA"
"-111.22","56.65","FORT MCMURRAY A","3062697","2013-11-13 20:00","2013","11","13","20:00","-3.9","","-7.2","","78","","","","26","","9","","16.1","","96.99","","","","-8","","NA"
"-111.22","56.65","FORT MCMURRAY A","3062697","2013-11-13 21:00","2013","11","13","21:00","-4.4","","-6.3","","87","","","","29","","9","","4.8","","96.95","","","","-8","","NA"
"-111.22","56.65","FORT MCMURRAY A","3062697","2013-11-13 22:00","2013","11","13","22:00","-4.9","","-6.0","","92","","","","30","","8","","4.8","","96.95","","","","-8","","NA"
"-111.22","56.65","FORT MCMURRAY A","3062697","2013-11-13 23:00","2013","11","13","23:00","-5.1","","-5.9","","94","","","","27","","8","","4.8","","96.93","","","","-9","","NA"
"-111.22","56.65","FORT MCMURRAY A","3062697","2013-11-14 00:00","2013","11","14","00:00","-5.6","","-6.3","","95","","","","22","","5","","3.6","","96.84","","","","-8","","NA"
"-111.22","56.65","FORT MCMURRAY A","3062697","2013-11-14 01:00","2013","11","14","01:00","-6.7","","-7.4","","95","","","","21","","8","","16.1","","96.76","","","","-11","","NA"
"-111.22","56.65","FORT MCMURRAY A","3062697","2013-11-14 02:00","2013","11","14","02:00","-6.2","","-7.0","","94","","","","24","","8","","16.1","","96.73","","","","-10","","NA"
"-111.22","56.65","FORT MCMURRAY A","3062697","2013-11-14 03:00","2013","11","14","03:00","-6.1","","-7.1","","93","","","","24","","8","","16.1","","96.66","","","","-10","","NA"
"-111.22","56.65","FORT MCMURRAY A","3062697","2013-11-14 04:00","2013","11","14","04:00","-6.1","","-6.9","","94","","","","21","","5","","8.1","","96.58","","","","-9","","NA"
"-111.22","56.65","FORT MCMURRAY A","3062697","2013-11-14 05:00","2013","11","14","05:00","-6.1","","-7.1","","93","","","","","M","4","","12.9","","96.47","","","","-8","","NA"
"-111.22","56.65","FORT MCMURRAY A","3062697","2013-11-14 06:00","2013","11","14","06:00","-5.8","","-6.9","","92","","","","23","","8","","16.1","","96.38","","","","-10","","NA"
"-111.22","56.65","FORT MCMURRAY A","3062697","2013-11-14 07:00","2013","11","14","07:00","-5.8","","-6.9","","92","","","","23","","11","","16.1","","96.27","","","","-11","","NA"
"-111.22","56.65","FORT MCMURRAY A","3062697","2013-11-14 08:00","2013","11","14","08:00","-5.7","","-6.8","","92","","","","23","","11","","16.1","","96.16","","","","-10","","NA"
"-111.22","56.65","FORT MCMURRAY A","3062697","2013-11-14 09:00","2013","11","14","09:00","-6.0","","-7.0","","93","","","","19","","5","","16.1","","96.07","","","","-8","","NA"
"-111.22","56.65","FORT MCMURRAY A","3062697","2013-11-14 10:00","2013","11","14","10:00","-6.0","","-7.2","","91","","","","20","","5","","16.1","","95.91","","","","-8","","NA"
"-111.22","56.65","FORT MCMURRAY A","3062697","2013-11-14 11:00","2013","11","14","11:00","-4.1","","-6.1","","86","","","","22","","17","","16.1","","95.83","","","","-10","","NA"
"-111.22","56.65","FORT MCMURRAY A","3062697","2013-11-14 12:00","2013","11","14","12:00","-2.8","","-5.5","","82","","","","22","","11","","16.1","","95.68","","","","-7","","NA"
"-111.22","56.65","FORT MCMURRAY A","3062697","2013-11-14 13:00","2013","11","14","13:00","-1.4","","-5.3","","75","","","","22","","8","","16.1","","95.51","","","","-4","","NA"
"-111.22","56.65","FORT MCMURRAY A","3062697","2013-11-14 14:00","2013","11","14","14:00","0.3","","-4.6","","70","","","","24","","17","","16.1","","95.37","","","","","","NA"
"-111.22","56.65","FORT MCMURRAY A","3062697","2013-11-14 15:00","2013","11","14","15:00","2.2","","-3.9","","64","","","","24","","24","","16.1","","95.21","","","","","","NA"
"-111.22","56.65","FORT MCMURRAY A","3062697","2013-11-14 16:00","2013","11","14","16:00","1.8","","-3.5","","68","","","","24","","21","","16.1","","95.15","","","","","","NA"
"-111.22","56.65","FORT MCMURRAY A","3062697","2013-11-14 17:00","2013","11","14","17:00","1.2","","-3.6","","71","","","","23","","13","","16.1","","95.04","","","","","","NA"
"-111.22","56.65","FORT MCMURRAY A","3062697","2013-11-14 18:00","2013","11","14","18:00","0.8","","-3.3","","74","","","","24","","13","","16.1","","94.95","","","","","","NA"
"-111.22","56.65","FORT MCMURRAY A","3062697","2013-11-14 19:00","2013","11","14","19:00","1.2","","-3.0","","74","","","","25","","21","","16.1","","94.90","","","","","","NA"
"-111.22","56.65","FORT MCMURRAY A","3062697","2013-11-14 20:00","2013","11","14","20:00","1.0","","-2.8","","76","","","","25","","15","","16.1","","94.84","","","","","","NA"
"-111.22","56.65","FORT MCMURRAY A","3062697","2013-11-14 21:00","2013","11","14","21:00","1.4","","-2.5","","75","","","","25","","21","","16.1","","94.73","","","","","","NA"
"-111.22","56.65","FORT MCMURRAY A","3062697","2013-11-14 22:00","2013","11","14","22:00","1.1","","-2.7","","76","","","","25","","13","","16.1","","94.63","","","","","","NA"
"-111.22","56.65","FORT MCMURRAY A","3062697","2013-11-14 23:00","2013","11","14","23:00","1.1","","-2.5","","77","","","","24","","15","","16.1","","94.53","","","","","","NA"
"-111.22","56.65","FORT MCMURRAY A","3062697","2013-11-15 00:00","2013","11","15","00:00","1.8","","-2.2","","75","","","","23","","18","","16.1","","94.45","","","","","","NA"
"-111.22","56.65","FORT MCMURRAY A","3062697","2013-11-15 01:00","2013","11","15","01:00","2.1","","-2.2","","73","","","","24","","17","","16.1","","94.38","","","","","","NA"
"-111.22","56.65","FORT MCMURRAY A","3062697","2013-11-15 02:00","2013","11","15","02:00","0.5","","-0.5","","93","","","","25","","13","","3.2","","94.38","","","","","","NA"
"-111.22","56.65","FORT MCMURRAY A","3062697","2013-11-15 03:00","2013","11","15","03:00","0.5","","-0.1","","96","","","","25","","9","","14.5","","94.36","","","","","","NA"
"-111.22","56.65","FORT MCMURRAY A","3062697","2013-11-15 04:00","2013","11","15","04:00","0.4","","-0.2","","96","","","","27","","21","","4.8","","94.37","","","","","","NA"
"-111.22","56.65","FORT MCMURRAY A","3062697","2013-11-15 05:00","2013","11","15","05:00","0.1","","","M","","M","","","33","","5","","4.0","","94.40","","","","","","NA"
"-111.22","56.65","FORT MCMURRAY A","3062697","2013-11-15 06:00","2013","11","15","06:00","0.1","","","M","","M","","","33","","11","","2.0","","94.47","","","","","","NA"
"-111.22","56.65","FORT MCMURRAY A","3062697","2013-11-15 07:00","2013","11","15","07:00","-0.1","","-1.4","","91","","","","35","","18","","16.1","","94.60","","","","-5","","NA"
"-111.22","56.65","FORT MCMURRAY A","3062697","2013-11-15 08:00","2013","11","15","08:00","-1.3","","-3.0","","88","","","","33","","13","","16.1","","94.69","","","","-6","","NA"
"-111.22","56.65","FORT MCMURRAY A","3062697","2013-11-15 09:00","2013","11","15","09:00","-1.9","","-3.2","","91","","","","34","","11","","16.1","","94.75","","","","-6","","NA"
"-111.22","56.65","FORT MCMURRAY A","3062697","2013-11-15 10:00","2013","11","15","10:00","-2.1","","-3.1","","93","","","","","","0","","16.1","","94.80","","","","","","NA"
"-111.22","56.65","FORT MCMURRAY A","3062697","2013-11-15 11:00","2013","11","15","11:00","-1.9","","-2.8","","94","","","","3","","4","","16.1","","94.84","","","","-3","","NA"
"-111.22","56.65","FORT MCMURRAY A","3062697","2013-11-15 12:00","2013","11","15","12:00","-1.5","","-3.2","","88","","","","30","","15","","16.1","","94.88","","","","-6","","NA"
"-111.22","56.65","FORT MCMURRAY A","3062697","2013-11-15 13:00","2013","11","15","13:00","-3.0","","-4.7","","88","","","","36","","24","","16.1","","94.98","","","","-10","","NA"
"-111.22","56.65","FORT MCMURRAY A","3062697","2013-11-15 14:00","2013","11","15","14:00","-4.3","","-6.7","","83","","","","34","","21","","16.1","","95.05","","","","-11","","NA"
"-111.22","56.65","FORT MCMURRAY A","3062697","2013-11-15 15:00","2013","11","15","15:00","-4.5","","-7.3","","81","","","","36","","18","","16.1","","95.10","","","","-11","","NA"
"-111.22","56.65","FORT MCMURRAY A","3062697","2013-11-15 16:00","2013","11","15","16:00","-4.8","","-8.1","","78","","","","1","","13","","16.1","","95.20","","","","-10","","NA"
"-111.22","56.65","FORT MCMURRAY A","3062697","2013-11-15 17:00","2013","11","15","17:00","-5.5","","-8.1","","82","","","","36","","17","","16.1","","95.32","","","","-12","","NA"
"-111.22","56.65","FORT MCMURRAY A","3062697","2013-11-15 18:00","2013","11","15","18:00","-6.3","","-8.7","","83","","","","36","","11","","14.5","","95.41","","","","-11","","NA"
"-111.22","56.65","FORT MCMURRAY A","3062697","2013-11-15 19:00","2013","11","15","19:00","-6.8","","-9.8","","79","","","","1","","17","","16.1","","95.48","","","","-13","","NA"
"-111.22","56.65","FORT MCMURRAY A","3062697","2013-11-15 20:00","2013","11","15","20:00","-7.2","","-9.9","","81","","","","36","","15","","16.1","","95.55","","","","-13","","NA"
"-111.22","56.65","FORT MCMURRAY A","3062697","2013-11-15 21:00","2013","11","15","21:00","-7.7","","-10.6","","80","","","","35","","22","","16.1","","95.66","","","","-15","","NA"
"-111.22","56.65","FORT MCMURRAY A","3062697","2013-11-15 22:00","2013","11","15","22:00","-8.8","","-11.9","","79","","","","36","","21","","16.1","","95.76","","","","-17","","NA"
"-111.22","56.65","FORT MCMURRAY A","3062697","2013-11-15 23:00","2013","11","15","23:00","-9.6","","-13.1","","76","","","","1","","32","","16.1","","95.82","","","","-19","","NA"
"-111.22","56.65","FORT MCMURRAY A","3062697","2013-11-16 00:00","2013","11","16","00:00","-10.3","","-13.3","","79","","","","1","","15","","16.1","","95.89","","","","-17","","NA"
"-111.22","56.65","FORT MCMURRAY A","3062697","2013-11-16 01:00","2013","11","16","01:00","-10.7","","-13.5","","80","","","","36","","11","","16.1","","95.98","","","","-16","","NA"
"-111.22","56.65","FORT MCMURRAY A","3062697","2013-11-16 02:00","2013","11","16","02:00","-10.8","","-13.3","","82","","","","35","","11","","16.1","","96.03","","","","-17","","NA"
"-111.22","56.65","FORT MCMURRAY A","3062697","2013-11-16 03:00","2013","11","16","03:00","-11.3","","-14.1","","80","","","","35","","13","","16.1","","96.07","","","","-18","","NA"
"-111.22","56.65","FORT MCMURRAY A","3062697","2013-11-16 04:00","2013","11","16","04:00","-12.0","","-14.4","","83","","","","36","","9","","16.1","","96.12","","","","-17","","NA"
"-111.22","56.65","FORT MCMURRAY A","3062697","2013-11-16 05:00","2013","11","16","05:00","-12.7","","-15.0","","83","","","","34","","9","","16.1","","96.19","","","","-18","","NA"
"-111.22","56.65","FORT MCMURRAY A","3062697","2013-11-16 06:00","2013","11","16","06:00","-13.1","","-15.3","","84","","","","34","","11","","16.1","","96.25","","","","-19","","NA"
"-111.22","56.65","FORT MCMURRAY A","3062697","2013-11-16 07:00","2013","11","16","07:00","-13.8","","-15.7","","86","","","","31","","8","","16.1","","96.31","","","","-19","","NA"
"-111.22","56.65","FORT MCMURRAY A","3062697","2013-11-16 08:00","2013","11","16","08:00","-14.7","","-16.4","","87","","","","31","","8","","16.1","","96.38","","","","-20","","NA"
"-111.22","56.65","FORT MCMURRAY A","3062697","2013-11-16 09:00","2013","11","16","09:00","-15.0","","-16.8","","86","","","","34","","9","","16.1","","96.43","","","","-21","","NA"
"-111.22","56.65","FORT MCMURRAY A","3062697","2013-11-16 10:00","2013","11","16","10:00","-14.4","","-16.3","","86","","","","36","","11","","16.1","","96.49","","","","-21","","NA"
"-111.22","56.65","FORT MCMURRAY A","3062697","2013-11-16 11:00","2013","11","16","11:00","-13.3","","-15.6","","83","","","","","M","4","","16.1","","96.56","","","","-16","","NA"
"-111.22","56.65","FORT MCMURRAY A","3062697","2013-11-16 12:00","2013","11","16","12:00","-12.4","","-14.6","","84","","","","5","","9","","16.1","","96.56","","","","-18","","NA"
"-111.22","56.65","FORT MCMURRAY A","3062697","2013-11-16 13:00","2013","11","16","13:00","-11.8","","-13.8","","85","","","","9","","5","","16.1","","96.59","","","","-15","","NA"
"-111.22","56.65","FORT MCMURRAY A","3062697","2013-11-16 14:00","2013","11","16","14:00","-11.3","","-13.5","","84","","","","","","0","","9.7","","96.62","","","","","","NA"
"-111.22","56.65","FORT MCMURRAY A","3062697","2013-11-16 15:00","2013","11","16","15:00","-10.8","","-12.6","","87","","","","32","","5","","14.5","","96.61","","","","-14","","NA"
"-111.22","56.65","FORT MCMURRAY A","3062697","2013-11-16 16:00","2013","11","16","16:00","-10.8","","-12.9","","85","","","","35","","11","","9.7","","96.65","","","","-17","","NA"
"-111.22","56.65","FORT MCMURRAY A","3062697","2013-11-16 17:00","2013","11","16","17:00","-11.0","","-13.0","","85","","","","35","","9","","16.1","","96.71","","","","-16","","NA"
"-111.22","56.65","FORT MCMURRAY A","3062697","2013-11-16 18:00","2013","11","16","18:00","-11.4","","-13.4","","85","","","","36","","8","","16.1","","96.75","","","","-16","","NA"
"-111.22","56.65","FORT MCMURRAY A","3062697","2013-11-16 19:00","2013","11","16","19:00","-12.0","","-14.0","","85","","","","34","","9","","16.1","","96.79","","","","-17","","NA"
"-111.22","56.65","FORT MCMURRAY A","3062697","2013-11-16 20:00","2013","11","16","20:00","-12.4","","-14.4","","85","","","","36","","11","","16.1","","96.85","","","","-18","","NA"
"-111.22","56.65","FORT MCMURRAY A","3062697","2013-11-16 21:00","2013","11","16","21:00","-12.6","","-14.6","","85","","","","2","","8","","16.1","","96.89","","","","-18","","NA"
"-111.22","56.65","FORT MCMURRAY A","3062697","2013-11-16 22:00","2013","11","16","22:00","-13.0","","-15.2","","84","","","","3","","9","","16.1","","96.93","","","","-18","","NA"
"-111.22","56.65","FORT MCMURRAY A","3062697","2013-11-16 23:00","2013","11","16","23:00","-13.3","","-15.6","","83","","","","2","","9","","16.1","","96.98","","","","-19","","NA"
"-111.22","56.65","FORT MCMURRAY A","3062697","2013-11-17 00:00","2013","11","17","00:00","-13.6","","-15.7","","85","","","","3","","9","","16.1","","97.00","","","","-19","","NA"
"-111.22","56.65","FORT MCMURRAY A","3062697","2013-11-17 01:00","2013","11","17","01:00","-14.2","","-16.2","","85","","","","2","","9","","16.1","","97.03","","","","-20","","NA"
"-111.22","56.65","FORT MCMURRAY A","3062697","2013-11-17 02:00","2013","11","17","02:00","-14.8","","-17.1","","83","","","","4","","11","","16.1","","97.03","","","","-21","","NA"
"-111.22","56.65","FORT MCMURRAY A","3062697","2013-11-17 03:00","2013","11","17","03:00","-15.1","","-17.2","","84","","","","3","","8","","4.8","","97.09","","","","-20","","NA"
"-111.22","56.65","FORT MCMURRAY A","3062697","2013-11-17 04:00","2013","11","17","04:00","-15.4","","-17.2","","87","","","","3","","8","","6.4","","97.13","","","","-21","","NA"
"-111.22","56.65","FORT MCMURRAY A","3062697","2013-11-17 05:00","2013","11","17","05:00","-15.7","","-17.7","","85","","","","4","","11","","2.4","","97.15","","","","-22","","NA"
"-111.22","56.65","FORT MCMURRAY A","3062697","2013-11-17 06:00","2013","11","17","06:00","-16.1","","-18.2","","84","","","","4","","11","","4.8","","97.13","","","","-23","","NA"
"-111.22","56.65","FORT MCMURRAY A","3062697","2013-11-17 07:00","2013","11","17","07:00","-16.0","","-18.0","","85","","","","4","","4","","4.8","","97.16","","","","-19","","NA"
"-111.22","56.65","FORT MCMURRAY A","3062697","2013-11-17 08:00","2013","11","17","08:00","-15.9","","-17.7","","86","","","","","M","4","","2.4","","97.19","","","","-19","","NA"
"-111.22","56.65","FORT MCMURRAY A","3062697","2013-11-17 09:00","2013","11","17","09:00","-16.2","","-17.9","","87","","","","34","","4","","1.6","","97.23","","","","-19","","NA"
"-111.22","56.65","FORT MCMURRAY A","3062697","2013-11-17 10:00","2013","11","17","10:00","-16.0","","-17.7","","87","","","","36","","4","","2.4","","97.25","","","","-19","","NA"
"-111.22","56.65","FORT MCMURRAY A","3062697","2013-11-17 11:00","2013","11","17","11:00","-15.1","","-17.0","","86","","","","6","","8","","3.2","","97.27","","","","-20","","NA"
"-111.22","56.65","FORT MCMURRAY A","3062697","2013-11-17 12:00","2013","11","17","12:00","-14.5","","-16.5","","85","","","","7","","9","","3.2","","97.29","","","","-20","","NA"
"-111.22","56.65","FORT MCMURRAY A","3062697","2013-11-17 13:00","2013","11","17","13:00","-13.9","","-16.0","","85","","","","8","","9","","4.0","","97.27","","","","-20","","NA"
"-111.22","56.65","FORT MCMURRAY A","3062697","2013-11-17 14:00","2013","11","17","14:00","-13.3","","-15.7","","82","","","","7","","13","","4.8","","97.23","","","","-20","","NA"
"-111.22","56.65","FORT MCMURRAY A","3062697","2013-11-17 15:00","2013","11","17","15:00","-13.1","","-15.7","","81","","","","7","","13","","6.4","","97.21","","","","-20","","NA"
"-111.22","56.65","FORT MCMURRAY A","3062697","2013-11-17 16:00","2013","11","17","16:00","-13.4","","-15.6","","84","","","","6","","9","","11.3","","97.20","","","","-19","","NA"
"-111.22","56.65","FORT MCMURRAY A","3062697","2013-11-17 17:00","2013","11","17","17:00","-14.3","","-16.1","","87","","","","5","","8","","16.1","","97.18","","","","-20","","NA"
"-111.22","56.65","FORT MCMURRAY A","3062697","2013-11-17 18:00","2013","11","17","18:00","-14.3","","-16.0","","87","","","","4","","9","","16.1","","97.16","","","","-20","","NA"
"-111.22","56.65","FORT MCMURRAY A","3062697","2013-11-17 19:00","2013","11","17","19:00","-14.4","","-16.3","","86","","","","3","","8","","8.1","","97.18","","","","-20","","NA"
"-111.22","56.65","FORT MCMURRAY A","3062697","2013-11-17 20:00","2013","11","17","20:00","-15.7","","-17.3","","88","","","","7","","8","","6.4","","97.13","","","","-21","","NA"
"-111.22","56.65","FORT MCMURRAY A","3062697","2013-11-17 21:00","2013","11","17","21:00","-16.3","","-17.6","","90","","","","6","","5","","16.1","","97.16","","","","-20","","NA"
"-111.22","56.65","FORT MCMURRAY A","3062697","2013-11-17 22:00","2013","11","17","22:00","-16.6","","-18.2","","88","","","","","M","4","","16.1","","97.23","","","","-20","","NA"
"-111.22","56.65","FORT MCMURRAY A","3062697","2013-11-17 23:00","2013","11","17","23:00","-15.7","","-17.1","","89","","","","5","","5","","6.4","","97.22","","","","-19","","NA"
"-111.22","56.65","FORT MCMURRAY A","3062697","2013-11-18 00:00","2013","11","18","00:00","-15.6","","-17.2","","88","","","","4","","5","","9.7","","97.20","","","","-19","","NA"
"-111.22","56.65","FORT MCMURRAY A","3062697","2013-11-18 01:00","2013","11","18","01:00","-15.8","","-17.4","","88","","","","8","","8","","16.1","","97.21","","","","-21","","NA"
"-111.22","56.65","FORT MCMURRAY A","3062697","2013-11-18 02:00","2013","11","18","02:00","-15.8","","-17.6","","87","","","","9","","8","","16.1","","97.18","","","","-21","","NA"
"-111.22","56.65","FORT MCMURRAY A","3062697","2013-11-18 03:00","2013","11","18","03:00","-16.4","","-18.1","","87","","","","13","","4","","6.4","","97.21","","","","-19","","NA"
"-111.22","56.65","FORT MCMURRAY A","3062697","2013-11-18 04:00","2013","11","18","04:00","-17.8","","-19.3","","88","","","","36","","4","","11.3","","97.25","","","","-21","","NA"
"-111.22","56.65","FORT MCMURRAY A","3062697","2013-11-18 05:00","2013","11","18","05:00","-17.1","","-18.6","","88","","","","","M","4","","2.0","","97.27","","","","-20","","NA"
"-111.22","56.65","FORT MCMURRAY A","3062697","2013-11-18 06:00","2013","11","18","06:00","-16.6","","-18.3","","87","","","","32","","5","","6.4","","97.33","","","","-20","","NA"
"-111.22","56.65","FORT MCMURRAY A","3062697","2013-11-18 07:00","2013","11","18","07:00","-16.8","","-18.5","","87","","","","34","","5","","2.0","","97.33","","","","-21","","NA"
"-111.22","56.65","FORT MCMURRAY A","3062697","2013-11-18 08:00","2013","11","18","08:00","-17.0","","-18.7","","87","","","","31","","8","","4.8","","97.35","","","","-23","","NA"
"-111.22","56.65","FORT MCMURRAY A","3062697","2013-11-18 09:00","2013","11","18","09:00","-17.6","","-19.3","","87","","","","33","","9","","4.0","","97.36","","","","-24","","NA"
"-111.22","56.65","FORT MCMURRAY A","3062697","2013-11-18 10:00","2013","11","18","10:00","-18.1","","-19.9","","86","","","","32","","11","","11.3","","97.40","","","","-25","","NA"
"-111.22","56.65","FORT MCMURRAY A","3062697","2013-11-18 11:00","2013","11","18","11:00","-17.9","","-19.7","","86","","","","29","","8","","14.5","","97.42","","","","-24","","NA"
"-111.22","56.65","FORT MCMURRAY A","3062697","2013-11-18 12:00","2013","11","18","12:00","-17.7","","-19.6","","85","","","","31","","9","","16.1","","97.43","","","","-24","","NA"
"-111.22","56.65","FORT MCMURRAY A","3062697","2013-11-18 13:00","2013","11","18","13:00","-16.3","","-18.7","","82","","","","27","","5","","16.1","","97.44","","","","-20","","NA"
"-111.22","56.65","FORT MCMURRAY A","3062697","2013-11-18 14:00","2013","11","18","14:00","-15.8","","-18.2","","82","","","","31","","9","","16.1","","97.45","","","","-22","","NA"
"-111.22","56.65","FORT MCMURRAY A","3062697","2013-11-18 15:00","2013","11","18","15:00","-15.8","","-18.4","","81","","","","30","","9","","16.1","","97.45","","","","-22","","NA"
"-111.22","56.65","FORT MCMURRAY A","3062697","2013-11-18 16:00","2013","11","18","16:00","-15.3","","-17.7","","82","","","","31","","11","","16.1","","97.41","","","","-22","","NA"
"-111.22","56.65","FORT MCMURRAY A","3062697","2013-11-18 17:00","2013","11","18","17:00","-16.2","","-18.1","","85","","","","30","","9","","16.1","","97.44","","","","-22","","NA"
"-111.22","56.65","FORT MCMURRAY A","3062697","2013-11-18 18:00","2013","11","18","18:00","-15.8","","-17.6","","86","","","","29","","11","","16.1","","97.46","","","","-23","","NA"
"-111.22","56.65","FORT MCMURRAY A","3062697","2013-11-18 19:00","2013","11","18","19:00","-15.7","","-17.4","","87","","","","34","","5","","1.6","","97.42","","","","-19","","NA"
"-111.22","56.65","FORT MCMURRAY A","3062697","2013-11-18 20:00","2013","11","18","20:00","-16.2","","-17.9","","87","","","","31","","9","","4.8","","97.41","","","","-22","","NA"
"-111.22","56.65","FORT MCMURRAY A","3062697","2013-11-18 21:00","2013","11","18","21:00","-16.6","","-18.2","","88","","","","32","","8","","16.1","","97.38","","","","-22","","NA"
"-111.22","56.65","FORT MCMURRAY A","3062697","2013-11-18 22:00","2013","11","18","22:00","-17.4","","-19.1","","87","","","","32","","13","","16.1","","97.39","","","","-25","","NA"
"-111.22","56.65","FORT MCMURRAY A","3062697","2013-11-18 23:00","2013","11","18","23:00","-18.7","","-20.5","","86","","","","32","","11","","16.1","","97.37","","","","-26","","NA"
"-111.22","56.65","FORT MCMURRAY A","3062697","2013-11-19 00:00","2013","11","19","00:00","-19.1","","-21.0","","85","","","","32","","13","","16.1","","97.37","","","","-27","","NA"
"-111.22","56.65","FORT MCMURRAY A","3062697","2013-11-19 01:00","2013","11","19","01:00","-19.2","","-21.3","","84","","","","33","","8","","16.1","","97.32","","","","-25","","NA"
"-111.22","56.65","FORT MCMURRAY A","3062697","2013-11-19 02:00","2013","11","19","02:00","-20.7","","-22.7","","84","","","","32","","13","","16.1","","97.30","","","","-29","","NA"
"-111.22","56.65","FORT MCMURRAY A","3062697","2013-11-19 03:00","2013","11","19","03:00","-21.7","","-23.9","","83","","","","32","","8","","16.1","","97.26","","","","-28","","NA"
"-111.22","56.65","FORT MCMURRAY A","3062697","2013-11-19 04:00","2013","11","19","04:00","-21.3","","-23.3","","84","","","","33","","9","","16.1","","97.23","","","","-28","","NA"
"-111.22","56.65","FORT MCMURRAY A","3062697","2013-11-19 05:00","2013","11","19","05:00","-21.3","","-23.3","","84","","","","33","","11","","16.1","","97.21","","","","-29","","NA"
"-111.22","56.65","FORT MCMURRAY A","3062697","2013-11-19 06:00","2013","11","19","06:00","-20.9","","-23.1","","83","","","","32","","9","","16.1","","97.18","","","","-28","","NA"
"-111.22","56.65","FORT MCMURRAY A","3062697","2013-11-19 07:00","2013","11","19","07:00","-21.4","","-23.6","","83","","","","32","","9","","16.1","","97.13","","","","-28","","NA"
"-111.22","56.65","FORT MCMURRAY A","3062697","2013-11-19 08:00","2013","11","19","08:00","-20.6","","-22.8","","83","","","","33","","9","","16.1","","97.12","","","","-27","","NA"
"-111.22","56.65","FORT MCMURRAY A","3062697","2013-11-19 09:00","2013","11","19","09:00","-20.2","","-22.4","","83","","","","31","","9","","16.1","","97.08","","","","-27","","NA"
"-111.22","56.65","FORT MCMURRAY A","3062697","2013-11-19 10:00","2013","11","19","10:00","-20.0","","-22.2","","83","","","","31","","13","","16.1","","97.08","","","","-28","","NA"
"-111.22","56.65","FORT MCMURRAY A","3062697","2013-11-19 11:00","2013","11","19","11:00","-20.0","","-22.2","","83","","","","31","","13","","12.9","","97.09","","","","-28","","NA"
"-111.22","56.65","FORT MCMURRAY A","3062697","2013-11-19 12:00","2013","11","19","12:00","-19.8","","-22.1","","82","","","","32","","13","","6.4","","97.08","","","","-28","","NA"
"-111.22","56.65","FORT MCMURRAY A","3062697","2013-11-19 13:00","2013","11","19","13:00","-19.5","","-21.7","","83","","","","31","","13","","4.8","","97.05","","","","-28","","NA"
"-111.22","56.65","FORT MCMURRAY A","3062697","2013-11-19 14:00","2013","11","19","14:00","-19.1","","-21.5","","82","","","","31","","17","","4.8","","97.06","","","","-29","","NA"
"-111.22","56.65","FORT MCMURRAY A","3062697","2013-11-19 15:00","2013","11","19","15:00","-19.0","","-21.8","","79","","","","31","","17","","16.1","","97.05","","","","-28","","NA"
"-111.22","56.65","FORT MCMURRAY A","3062697","2013-11-19 16:00","2013","11","19","16:00","-19.0","","-21.9","","78","","","","33","","26","","16.1","","97.09","","","","-31","","NA"
"-111.22","56.65","FORT MCMURRAY A","3062697","2013-11-19 17:00","2013","11","19","17:00","-19.8","","-22.1","","82","","","","33","","15","","16.1","","97.13","","","","-29","","NA"
"-111.22","56.65","FORT MCMURRAY A","3062697","2013-11-19 18:00","2013","11","19","18:00","-20.2","","-22.5","","82","","","","32","","18","","16.1","","97.16","","","","-30","","NA"
"-111.22","56.65","FORT MCMURRAY A","3062697","2013-11-19 19:00","2013","11","19","19:00","-20.5","","-22.5","","84","","","","33","","17","","16.1","","97.22","","","","-30","","NA"
"-111.22","56.65","FORT MCMURRAY A","3062697","2013-11-19 20:00","2013","11","19","20:00","-20.8","","-23.0","","83","","","","32","","18","","16.1","","97.27","","","","-31","","NA"
"-111.22","56.65","FORT MCMURRAY A","3062697","2013-11-19 21:00","2013","11","19","21:00","-21.4","","-23.7","","82","","","","32","","17","","16.1","","97.35","","","","-31","","NA"
"-111.22","56.65","FORT MCMURRAY A","3062697","2013-11-19 22:00","2013","11","19","22:00","-21.2","","-23.7","","81","","","","31","","15","","8.1","","97.43","","","","-31","","NA"
"-111.22","56.65","FORT MCMURRAY A","3062697","2013-11-19 23:00","2013","11","19","23:00","-21.9","","-24.1","","83","","","","30","","15","","9.7","","97.47","","","","-31","","NA"
"-111.22","56.65","FORT MCMURRAY A","3062697","2013-11-20 00:00","2013","11","20","00:00","-21.9","","-24.2","","82","","","","32","","13","","16.1","","97.54","","","","-31","","NA"
"-111.22","56.65","FORT MCMURRAY A","3062697","2013-11-20 01:00","2013","11","20","01:00","-22.5","","-24.8","","82","","","","27","","5","","14.5","","97.62","","","","-27","","NA"
"-111.22","56.65","FORT MCMURRAY A","3062697","2013-11-20 02:00","2013","11","20","02:00","-24.6","","-27.1","","80","","","","22","","8","","16.1","","97.67","","","","-32","","NA"
"-111.22","56.65","FORT MCMURRAY A","3062697","2013-11-20 03:00","2013","11","20","03:00","-24.6","","-27.1","","80","","","","24","","8","","16.1","","97.73","","","","-32","","NA"
"-111.22","56.65","FORT MCMURRAY A","3062697","2013-11-20 04:00","2013","11","20","04:00","-24.0","","-26.4","","81","","","","25","","5","","12.9","","97.80","","","","-29","","NA"
"-111.22","56.65","FORT MCMURRAY A","3062697","2013-11-20 05:00","2013","11","20","05:00","-24.4","","-27.0","","80","","","","24","","5","","16.1","","97.82","","","","-29","","NA"
"-111.22","56.65","FORT MCMURRAY A","3062697","2013-11-20 06:00","2013","11","20","06:00","-25.2","","-27.9","","79","","","","22","","9","","16.1","","97.86","","","","-33","","NA"
"-111.22","56.65","FORT MCMURRAY A","3062697","2013-11-20 07:00","2013","11","20","07:00","-26.2","","-28.8","","79","","","","22","","8","","16.1","","97.90","","","","-34","","NA"
"-111.22","56.65","FORT MCMURRAY A","3062697","2013-11-20 08:00","2013","11","20","08:00","-26.7","","-29.5","","78","","","","21","","9","","16.1","","97.93","","","","-35","","NA"
"-111.22","56.65","FORT MCMURRAY A","3062697","2013-11-20 09:00","2013","11","20","09:00","-27.7","","-30.7","","76","","","","21","","8","","16.1","","97.98","","","","-35","","NA"
"-111.22","56.65","FORT MCMURRAY A","3062697","2013-11-20 10:00","2013","11","20","10:00","-26.8","","-29.7","","77","","","","23","","5","","16.1","","98.03","","","","-32","","NA"
"-111.22","56.65","FORT MCMURRAY A","3062697","2013-11-20 11:00","2013","11","20","11:00","-24.8","","-27.5","","79","","","","23","","9","","16.1","","98.08","","","","-32","","NA"
"-111.22","56.65","FORT MCMURRAY A","3062697","2013-11-20 12:00","2013","11","20","12:00","-23.0","","-25.7","","79","","","","22","","8","","16.1","","98.12","","","","-30","","NA"
"-111.22","56.65","FORT MCMURRAY A","3062697","2013-11-20 13:00","2013","11","20","13:00","-21.7","","-24.5","","78","","","","","M","4","","16.1","","98.11","","","","-25","","NA"
"-111.22","56.65","FORT MCMURRAY A","3062697","2013-11-20 14:00","2013","11","20","14:00","-20.4","","-23.6","","76","","","","23","","9","","16.1","","98.07","","","","-27","","NA"
"-111.22","56.65","FORT MCMURRAY A","3062697","2013-11-20 15:00","2013","11","20","15:00","-19.7","","-23.2","","74","","","","27","","11","","16.1","","98.05","","","","-27","","NA"
"-111.22","56.65","FORT MCMURRAY A","3062697","2013-11-20 16:00","2013","11","20","16:00","-19.1","","-22.7","","74","","","","24","","5","","16.1","","98.06","","","","-23","","NA"
"-111.22","56.65","FORT MCMURRAY A","3062697","2013-11-20 17:00","2013","11","20","17:00","-20.3","","-23.0","","80","","","","","","0","","16.1","","98.07","","","","","","NA"
"-111.22","56.65","FORT MCMURRAY A","3062697","2013-11-20 18:00","2013","11","20","18:00","-22.9","","-25.2","","82","","","","11","","9","","16.1","","98.07","","","","-30","","NA"
"-111.22","56.65","FORT MCMURRAY A","3062697","2013-11-20 19:00","2013","11","20","19:00","-23.6","","-25.7","","83","","","","11","","9","","16.1","","98.11","","","","-31","","NA"
"-111.22","56.65","FORT MCMURRAY A","3062697","2013-11-20 20:00","2013","11","20","20:00","-23.9","","-26.3","","81","","","","11","","11","","16.1","","98.08","","","","-32","","NA"
"-111.22","56.65","FORT MCMURRAY A","3062697","2013-11-20 21:00","2013","11","20","21:00","-25.5","","-27.9","","81","","","","11","","9","","16.1","","98.12","","","","-33","","NA"
"-111.22","56.65","FORT MCMURRAY A","3062697","2013-11-20 22:00","2013","11","20","22:00","-26.1","","-28.5","","81","","","","11","","8","","16.1","","98.14","","","","-33","","NA"
"-111.22","56.65","FORT MCMURRAY A","3062697","2013-11-20 23:00","2013","11","20","23:00","-26.4","","-29.0","","79","","","","10","","8","","16.1","","98.13","","","","-34","","NA"
"-111.22","56.65","FORT MCMURRAY A","3062697","2013-11-21 00:00","2013","11","21","00:00","-26.2","","-28.8","","79","","","","10","","5","","16.1","","98.14","","","","-31","","NA"
"-111.22","56.65","FORT MCMURRAY A","3062697","2013-11-21 01:00","2013","11","21","01:00","-25.8","","-28.3","","80","","","","10","","9","","16.1","","98.14","","","","-34","","NA"
"-111.22","56.65","FORT MCMURRAY A","3062697","2013-11-21 02:00","2013","11","21","02:00","-28.1","","-31.5","","74","","","","14","","4","","16.1","","98.16","","","","-32","","NA"
"-111.22","56.65","FORT MCMURRAY A","3062697","2013-11-21 03:00","2013","11","21","03:00","-30.0","","-33.3","","74","","","","11","","4","","16.1","","98.20","","","","-35","","NA"
"-111.22","56.65","FORT MCMURRAY A","3062697","2013-11-21 04:00","2013","11","21","04:00","-30.0","","-32.9","","76","","","","14","","4","","16.1","","98.22","","","","-35","","NA"
"-111.22","56.65","FORT MCMURRAY A","3062697","2013-11-21 05:00","2013","11","21","05:00","-31.4","","-34.4","","76","","","","15","","5","","16.1","","98.23","","","","-37","","NA"
"-111.22","56.65","FORT MCMURRAY A","3062697","2013-11-21 06:00","2013","11","21","06:00","-31.2","","-34.3","","75","","","","18","","8","","16.1","","98.26","","","","-39","","NA"
"-111.22","56.65","FORT MCMURRAY A","3062697","2013-11-21 07:00","2013","11","21","07:00","-31.4","","-34.8","","73","","","","20","","5","","16.1","","98.35","","","","-37","","NA"
"-111.22","56.65","FORT MCMURRAY A","3062697","2013-11-21 08:00","2013","11","21","08:00","-30.2","","-33.3","","75","","","","15","","4","","16.1","","98.40","","","","-35","","NA"
"-111.22","56.65","FORT MCMURRAY A","3062697","2013-11-21 09:00","2013","11","21","09:00","-30.7","","-33.8","","75","","","","19","","4","","16.1","","98.47","","","","-35","","NA"
"-111.22","56.65","FORT MCMURRAY A","3062697","2013-11-21 10:00","2013","11","21","10:00","-30.6","","-33.8","","74","","","","13","","5","","16.1","","98.53","","","","-36","","NA"
"-111.22","56.65","FORT MCMURRAY A","3062697","2013-11-21 11:00","2013","11","21","11:00","-28.7","","-31.7","","76","","","","","","0","","16.1","","98.60","","","","","","NA"
"-111.22","56.65","FORT MCMURRAY A","3062697","2013-11-21 12:00","2013","11","21","12:00","-27.0","","-30.0","","76","","","","","M","4","","9.7","","98.64","","","","-31","","NA"
"-111.22","56.65","FORT MCMURRAY A","3062697","2013-11-21 13:00","2013","11","21","13:00","-25.1","","-27.9","","78","","","","1","","5","","16.1","","98.64","","","","-30","","NA"
"-111.22","56.65","FORT MCMURRAY A","3062697","2013-11-21 14:00","2013","11","21","14:00","-23.6","","-26.5","","77","","","","","M","4","","16.1","","98.65","","","","-27","","NA"
"-111.22","56.65","FORT MCMURRAY A","3062697","2013-11-21 15:00","2013","11","21","15:00","-22.6","","-25.9","","75","","","","33","","4","","16.1","","98.70","","","","-26","","NA"
"-111.22","56.65","FORT MCMURRAY A","3062697","2013-11-21 16:00","2013","11","21","16:00","-22.2","","-25.4","","76","","","","","","0","","16.1","","98.75","","","","","","NA"
"-111.22","56.65","FORT MCMURRAY A","3062697","2013-11-21 17:00","2013","11","21","17:00","-22.8","","-25.6","","78","","","","","","0","","16.1","","98.82","","","","","","NA"
"-111.22","56.65","FORT MCMURRAY A","3062697","2013-11-21 18:00","2013","11","21","18:00","-24.9","","-27.6","","79","","","","24","","5","","16.1","","98.87","","","","-30","","NA"
"-111.22","56.65","FORT MCMURRAY A","3062697","2013-11-21 19:00","2013","11","21","19:00","-28.0","","-30.7","","78","","","","","M","4","","16.1","","98.94","","","","-32","","NA"
"-111.22","56.65","FORT MCMURRAY A","3062697","2013-11-21 20:00","2013","11","21","20:00","-28.9","","-31.8","","77","","","","","","0","","16.1","","99.00","","","","","","NA"
"-111.22","56.65","FORT MCMURRAY A","3062697","2013-11-21 21:00","2013","11","21","21:00","-29.7","","-32.6","","77","","","","","","0","","16.1","","99.05","","","","","","NA"
"-111.22","56.65","FORT MCMURRAY A","3062697","2013-11-21 22:00","2013","11","21","22:00","-30.0","","-33.0","","76","","","","","","0","","16.1","","99.13","","","","","","NA"
"-111.22","56.65","FORT MCMURRAY A","3062697","2013-11-21 23:00","2013","11","21","23:00","-30.5","","-33.5","","76","","","","","","0","","4.8","","99.19","","","","","","NA"
"-111.22","56.65","FORT MCMURRAY A","3062697","2013-11-22 00:00","2013","11","22","00:00","-30.8","","-33.9","","75","","","","","","0","","16.1","","99.28","","","","","","NA"
"-111.22","56.65","FORT MCMURRAY A","3062697","2013-11-22 01:00","2013","11","22","01:00","-31.0","","-34.2","","74","","","","","M","4","","16.1","","99.35","","","","-36","","NA"
"-111.22","56.65","FORT MCMURRAY A","3062697","2013-11-22 02:00","2013","11","22","02:00","-31.6","","-34.8","","74","","","","","","0","","16.1","","99.41","","","","","","NA"
"-111.22","56.65","FORT MCMURRAY A","3062697","2013-11-22 03:00","2013","11","22","03:00","-32.5","","-36.1","","71","","","","18","","4","","16.1","","99.47","","","","-37","","NA"
"-111.22","56.65","FORT MCMURRAY A","3062697","2013-11-22 04:00","2013","11","22","04:00","-31.9","","-35.2","","73","","","","13","","4","","16.1","","99.53","","","","-37","","NA"
"-111.22","56.65","FORT MCMURRAY A","3062697","2013-11-22 05:00","2013","11","22","05:00","-32.1","","-35.4","","73","","","","17","","8","","16.1","","99.58","","","","-40","","NA"
"-111.22","56.65","FORT MCMURRAY A","3062697","2013-11-22 06:00","2013","11","22","06:00","-32.4","","-35.7","","73","","","","11","","4","","16.1","","99.62","","","","-37","","NA"
"-111.22","56.65","FORT MCMURRAY A","3062697","2013-11-22 07:00","2013","11","22","07:00","-32.7","","-36.2","","72","","","","","","0","","16.1","","99.66","","","","","","NA"
"-111.22","56.65","FORT MCMURRAY A","3062697","2013-11-22 08:00","2013","11","22","08:00","-33.2","","-36.8","","71","","","","16","","8","","16.1","","99.70","","","","-42","","NA"
"-111.22","56.65","FORT MCMURRAY A","3062697","2013-11-22 09:00","2013","11","22","09:00","-32.9","","-36.4","","72","","","","","","0","","16.1","","99.75","","","","","","NA"
"-111.22","56.65","FORT MCMURRAY A","3062697","2013-11-22 10:00","2013","11","22","10:00","-32.2","","-35.5","","73","","","","","","0","","16.1","","99.77","","","","","","NA"
"-111.22","56.65","FORT MCMURRAY A","3062697","2013-11-22 11:00","2013","11","22","11:00","-30.2","","-33.2","","76","","","","9","","5","","16.1","","99.76","","","","-36","","NA"
"-111.22","56.65","FORT MCMURRAY A","3062697","2013-11-22 12:00","2013","11","22","12:00","-27.6","","-30.3","","78","","","","7","","8","","16.1","","99.72","","","","-35","","NA"
"-111.22","56.65","FORT MCMURRAY A","3062697","2013-11-22 13:00","2013","11","22","13:00","-26.7","","-29.6","","77","","","","6","","8","","9.7","","99.67","","","","-34","","NA"
"-111.22","56.65","FORT MCMURRAY A","3062697","2013-11-22 14:00","2013","11","22","14:00","-23.1","","-25.9","","78","","","","6","","9","","16.1","","99.59","","","","-30","","NA"
"-111.22","56.65","FORT MCMURRAY A","3062697","2013-11-22 15:00","2013","11","22","15:00","-22.2","","-25.2","","77","","","","7","","9","","16.1","","99.55","","","","-29","","NA"
"-111.22","56.65","FORT MCMURRAY A","3062697","2013-11-22 16:00","2013","11","22","16:00","-22.0","","-25.0","","77","","","","10","","9","","16.1","","99.48","","","","-29","","NA"
"-111.22","56.65","FORT MCMURRAY A","3062697","2013-11-22 17:00","2013","11","22","17:00","-22.9","","-25.6","","79","","","","10","","11","","16.1","","99.41","","","","-31","","NA"
"-111.22","56.65","FORT MCMURRAY A","3062697","2013-11-22 18:00","2013","11","22","18:00","-23.0","","-25.4","","81","","","","10","","9","","16.1","","99.36","","","","-30","","NA"
"-111.22","56.65","FORT MCMURRAY A","3062697","2013-11-22 19:00","2013","11","22","19:00","-22.5","","-25.1","","80","","","","10","","13","","16.1","","99.21","","","","-31","","NA"
"-111.22","56.65","FORT MCMURRAY A","3062697","2013-11-22 20:00","2013","11","22","20:00","-21.4","","-24.0","","80","","","","9","","11","","16.1","","99.16","","","","-29","","NA"
"-111.22","56.65","FORT MCMURRAY A","3062697","2013-11-22 21:00","2013","11","22","21:00","-19.5","","-22.0","","81","","","","11","","15","","16.1","","99.05","","","","-28","","NA"
"-111.22","56.65","FORT MCMURRAY A","3062697","2013-11-22 22:00","2013","11","22","22:00","-18.6","","-21.1","","81","","","","10","","18","","16.1","","98.94","","","","-28","","NA"
"-111.22","56.65","FORT MCMURRAY A","3062697","2013-11-22 23:00","2013","11","22","23:00","-17.6","","-20.0","","82","","","","10","","13","","16.1","","98.88","","","","-25","","NA"
"-111.22","56.65","FORT MCMURRAY A","3062697","2013-11-23 00:00","2013","11","23","00:00","-16.8","","-19.2","","82","","","","11","","17","","16.1","","98.77","","","","-26","","NA"
"-111.22","56.65","FORT MCMURRAY A","3062697","2013-11-23 01:00","2013","11","23","01:00","-16.0","","-18.3","","83","","","","11","","15","","16.1","","98.66","","","","-24","","NA"
"-111.22","56.65","FORT MCMURRAY A","3062697","2013-11-23 02:00","2013","11","23","02:00","-15.4","","-17.7","","83","","","","12","","18","","16.1","","98.52","","","","-24","","NA"
"-111.22","56.65","FORT MCMURRAY A","3062697","2013-11-23 03:00","2013","11","23","03:00","-14.6","","-16.9","","83","","","","12","","18","","16.1","","98.39","","","","-23","","NA"
"-111.22","56.65","FORT MCMURRAY A","3062697","2013-11-23 04:00","2013","11","23","04:00","-14.2","","-16.3","","84","","","","12","","17","","16.1","","98.31","","","","-22","","NA"
"-111.22","56.65","FORT MCMURRAY A","3062697","2013-11-23 05:00","2013","11","23","05:00","-14.0","","-16.2","","84","","","","11","","11","","16.1","","98.17","","","","-20","","NA"
"-111.22","56.65","FORT MCMURRAY A","3062697","2013-11-23 06:00","2013","11","23","06:00","-14.0","","-16.0","","85","","","","11","","15","","16.1","","98.00","","","","-22","","NA"
"-111.22","56.65","FORT MCMURRAY A","3062697","2013-11-23 07:00","2013","11","23","07:00","-13.2","","-15.4","","84","","","","12","","18","","16.1","","97.86","","","","-21","","NA"
"-111.22","56.65","FORT MCMURRAY A","3062697","2013-11-23 08:00","2013","11","23","08:00","-14.1","","-16.1","","85","","","","11","","17","","16.1","","97.67","","","","-22","","NA"
"-111.22","56.65","FORT MCMURRAY A","3062697","2013-11-23 09:00","2013","11","23","09:00","-14.1","","-16.1","","85","","","","11","","17","","16.1","","97.55","","","","-22","","NA"
"-111.22","56.65","FORT MCMURRAY A","3062697","2013-11-23 10:00","2013","11","23","10:00","-14.1","","-16.2","","84","","","","11","","15","","16.1","","97.45","","","","-22","","NA"
"-111.22","56.65","FORT MCMURRAY A","3062697","2013-11-23 11:00","2013","11","23","11:00","-13.2","","-15.4","","84","","","","11","","15","","16.1","","97.31","","","","-21","","NA"
"-111.22","56.65","FORT MCMURRAY A","3062697","2013-11-23 12:00","2013","11","23","12:00","-11.7","","-14.0","","83","","","","10","","17","","16.1","","97.20","","","","-19","","NA"
"-111.22","56.65","FORT MCMURRAY A","3062697","2013-11-23 13:00","2013","11","23","13:00","-10.0","","-12.4","","83","","","","9","","11","","16.1","","97.07","","","","-16","","NA"
"-111.22","56.65","FORT MCMURRAY A","3062697","2013-11-23 14:00","2013","11","23","14:00","-8.8","","-10.9","","85","","","","9","","9","","16.1","","96.92","","","","-13","","NA"
"-111.22","56.65","FORT MCMURRAY A","3062697","2013-11-23 15:00","2013","11","23","15:00","-7.9","","-9.8","","86","","","","10","","9","","16.1","","96.76","","","","-12","","NA"
"-111.22","56.65","FORT MCMURRAY A","3062697","2013-11-23 16:00","2013","11","23","16:00","-7.3","","-9.0","","88","","","","8","","9","","16.1","","96.54","","","","-12","","NA"
"-111.22","56.65","FORT MCMURRAY A","3062697","2013-11-23 17:00","2013","11","23","17:00","-8.1","","-9.5","","90","","","","5","","8","","16.1","","96.43","","","","-12","","NA"
"-111.22","56.65","FORT MCMURRAY A","3062697","2013-11-23 18:00","2013","11","23","18:00","-6.4","","-7.8","","90","","","","13","","4","","16.1","","96.31","","","","-8","","NA"
"-111.22","56.65","FORT MCMURRAY A","3062697","2013-11-23 19:00","2013","11","23","19:00","-6.7","","-8.1","","90","","","","","M","4","","16.1","","96.23","","","","-9","","NA"
"-111.22","56.65","FORT MCMURRAY A","3062697","2013-11-23 20:00","2013","11","23","20:00","0.0","","-3.9","","75","","","","25","","26","","16.1","","96.11","","","","-6","","NA"
"-111.22","56.65","FORT MCMURRAY A","3062697","2013-11-23 21:00","2013","11","23","21:00","0.1","","-3.2","","79","","","","26","","24","","16.1","","96.09","","","","","","NA"
"-111.22","56.65","FORT MCMURRAY A","3062697","2013-11-23 22:00","2013","11","23","22:00","0.5","","-2.6","","80","","","","25","","22","","16.1","","96.05","","","","","","NA"
"-111.22","56.65","FORT MCMURRAY A","3062697","2013-11-23 23:00","2013","11","23","23:00","0.9","","-2.0","","81","","","","26","","18","","16.1","","96.09","","","","","","NA"
"-111.22","56.65","FORT MCMURRAY A","3062697","2013-11-24 00:00","2013","11","24","00:00","0.3","","-2.3","","83","","","","26","","13","","16.1","","96.10","","","","","","NA"
"-111.22","56.65","FORT MCMURRAY A","3062697","2013-11-24 01:00","2013","11","24","01:00","-0.1","","-2.2","","86","","","","24","","15","","16.1","","96.06","","","","-5","","NA"
"-111.22","56.65","FORT MCMURRAY A","3062697","2013-11-24 02:00","2013","11","24","02:00","0.9","","-1.6","","84","","","","25","","24","","16.1","","96.05","","","","","","NA"
"-111.22","56.65","FORT MCMURRAY A","3062697","2013-11-24 03:00","2013","11","24","03:00","1.1","","-1.3","","84","","","","26","","30","","16.1","","96.02","","","","","","NA"
"-111.22","56.65","FORT MCMURRAY A","3062697","2013-11-24 04:00","2013","11","24","04:00","1.4","","-1.1","","83","","","","25","","24","","16.1","","96.06","","","","","","NA"
"-111.22","56.65","FORT MCMURRAY A","3062697","2013-11-24 05:00","2013","11","24","05:00","1.1","","-1.3","","84","","","","26","","17","","16.1","","96.05","","","","","","NA"
"-111.22","56.65","FORT MCMURRAY A","3062697","2013-11-24 06:00","2013","11","24","06:00","0.9","","-1.4","","85","","","","25","","13","","16.1","","96.10","","","","","","NA"
"-111.22","56.65","FORT MCMURRAY A","3062697","2013-11-24 07:00","2013","11","24","07:00","1.1","","-1.5","","83","","","","22","","9","","16.1","","96.14","","","","","","NA"
"-111.22","56.65","FORT MCMURRAY A","3062697","2013-11-24 08:00","2013","11","24","08:00","0.8","","-1.4","","85","","","","20","","9","","16.1","","96.04","","","","","","NA"
"-111.22","56.65","FORT MCMURRAY A","3062697","2013-11-24 09:00","2013","11","24","09:00","1.0","","-4.1","","69","","","","28","","37","","16.1","","96.11","","","","","","NA"
"-111.22","56.65","FORT MCMURRAY A","3062697","2013-11-24 10:00","2013","11","24","10:00","0.2","","-5.3","","67","","","","28","","42","","16.1","","96.20","","","","","","NA"
"-111.22","56.65","FORT MCMURRAY A","3062697","2013-11-24 11:00","2013","11","24","11:00","0.1","","-5.2","","68","","","","28","","48","","16.1","","96.27","","","","","","NA"
"-111.22","56.65","FORT MCMURRAY A","3062697","2013-11-24 12:00","2013","11","24","12:00","0.6","","-4.2","","70","","","","28","","46","","16.1","","96.35","","","","","","NA"
"-111.22","56.65","FORT MCMURRAY A","3062697","2013-11-24 13:00","2013","11","24","13:00","1.0","","-4.0","","69","","","","30","","41","","16.1","","96.49","","","","","","NA"
"-111.22","56.65","FORT MCMURRAY A","3062697","2013-11-24 14:00","2013","11","24","14:00","1.4","","-4.2","","67","","","","29","","33","","16.1","","96.58","","","","","","NA"
"-111.22","56.65","FORT MCMURRAY A","3062697","2013-11-24 15:00","2013","11","24","15:00","1.3","","-4.7","","64","","","","30","","42","","16.1","","96.71","","","","","","NA"
"-111.22","56.65","FORT MCMURRAY A","3062697","2013-11-24 16:00","2013","11","24","16:00","0.8","","-4.8","","66","","","","31","","45","","16.1","","96.88","","","","","","NA"
"-111.22","56.65","FORT MCMURRAY A","3062697","2013-11-24 17:00","2013","11","24","17:00","-0.1","","-4.7","","71","","","","34","","22","","16.1","","97.04","","","","-6","","NA"
"-111.22","56.65","FORT MCMURRAY A","3062697","2013-11-24 18:00","2013","11","24","18:00","-2.8","","-6.6","","75","","","","34","","22","","16.1","","97.17","","","","-9","","NA"
"-111.22","56.65","FORT MCMURRAY A","3062697","2013-11-24 19:00","2013","11","24","19:00","-3.7","","-7.4","","76","","","","33","","11","","16.1","","97.24","","","","-8","","NA"
"-111.22","56.65","FORT MCMURRAY A","3062697","2013-11-24 20:00","2013","11","24","20:00","-4.5","","-9.3","","69","","","","35","","21","","16.1","","97.36","","","","-11","","NA"
"-111.22","56.65","FORT MCMURRAY A","3062697","2013-11-24 21:00","2013","11","24","21:00","-4.9","","-9.5","","70","","","","33","","15","","16.1","","97.48","","","","-10","","NA"
"-111.22","56.65","FORT MCMURRAY A","3062697","2013-11-24 22:00","2013","11","24","22:00","-5.2","","-9.1","","74","","","","32","","17","","16.1","","97.55","","","","-11","","NA"
"-111.22","56.65","FORT MCMURRAY A","3062697","2013-11-24 23:00","2013","11","24","23:00","-5.7","","-9.5","","75","","","","35","","15","","16.1","","97.64","","","","-11","","NA"
"-111.22","56.65","FORT MCMURRAY A","3062697","2013-11-25 00:00","2013","11","25","00:00","-6.2","","-10.1","","74","","","","34","","15","","16.1","","97.72","","","","-12","","NA"
"-111.22","56.65","FORT MCMURRAY A","3062697","2013-11-25 01:00","2013","11","25","01:00","-6.4","","-10.2","","74","","","","29","","9","","16.1","","97.76","","","","-11","","NA"
"-111.22","56.65","FORT MCMURRAY A","3062697","2013-11-25 02:00","2013","11","25","02:00","-6.4","","-9.9","","76","","","","25","","8","","16.1","","97.84","","","","-10","","NA"
"-111.22","56.65","FORT MCMURRAY A","3062697","2013-11-25 03:00","2013","11","25","03:00","-6.3","","-9.5","","78","","","","25","","9","","16.1","","97.86","","","","-11","","NA"
"-111.22","56.65","FORT MCMURRAY A","3062697","2013-11-25 04:00","2013","11","25","04:00","-6.1","","-9.7","","76","","","","27","","18","","16.1","","97.87","","","","-13","","NA"
"-111.22","56.65","FORT MCMURRAY A","3062697","2013-11-25 05:00","2013","11","25","05:00","-7.9","","-11.1","","78","","","","28","","18","","16.1","","97.97","","","","-15","","NA"
"-111.22","56.65","FORT MCMURRAY A","3062697","2013-11-25 06:00","2013","11","25","06:00","-8.5","","-11.7","","78","","","","27","","15","","16.1","","98.04","","","","-15","","NA"
"-111.22","56.65","FORT MCMURRAY A","3062697","2013-11-25 07:00","2013","11","25","07:00","-10.5","","-12.4","","86","","","","25","","8","","16.1","","98.09","","","","-15","","NA"
"-111.22","56.65","FORT MCMURRAY A","3062697","2013-11-25 08:00","2013","11","25","08:00","-11.7","","-13.2","","89","","","","25","","11","","16.1","","98.15","","","","-18","","NA"
"-111.22","56.65","FORT MCMURRAY A","3062697","2013-11-25 09:00","2013","11","25","09:00","-13.3","","-14.7","","89","","","","23","","13","","16.1","","98.22","","","","-20","","NA"
"-111.22","56.65","FORT MCMURRAY A","3062697","2013-11-25 10:00","2013","11","25","10:00","-12.8","","-14.4","","88","","","","23","","15","","16.1","","98.25","","","","-20","","NA"
"-111.22","56.65","FORT MCMURRAY A","3062697","2013-11-25 11:00","2013","11","25","11:00","-11.2","","-13.5","","83","","","","24","","15","","16.1","","98.28","","","","-18","","NA"
"-111.22","56.65","FORT MCMURRAY A","3062697","2013-11-25 12:00","2013","11","25","12:00","-9.3","","-12.6","","77","","","","24","","13","","16.1","","98.29","","","","-15","","NA"
"-111.22","56.65","FORT MCMURRAY A","3062697","2013-11-25 13:00","2013","11","25","13:00","-8.1","","-12.6","","70","","","","25","","15","","16.1","","98.31","","","","-14","","NA"
"-111.22","56.65","FORT MCMURRAY A","3062697","2013-11-25 14:00","2013","11","25","14:00","-7.3","","-12.8","","65","","","","24","","15","","16.1","","98.32","","","","-13","","NA"
"-111.22","56.65","FORT MCMURRAY A","3062697","2013-11-25 15:00","2013","11","25","15:00","-6.0","","-12.8","","59","","","","25","","11","","16.1","","98.30","","","","-11","","NA"
"-111.22","56.65","FORT MCMURRAY A","3062697","2013-11-25 16:00","2013","11","25","16:00","-5.9","","-13.3","","56","","","","23","","8","","16.1","","98.30","","","","-10","","NA"
"-111.22","56.65","FORT MCMURRAY A","3062697","2013-11-25 17:00","2013","11","25","17:00","-7.6","","-13.0","","66","","","","23","","13","","16.1","","98.30","","","","-13","","NA"
"-111.22","56.65","FORT MCMURRAY A","3062697","2013-11-25 18:00","2013","11","25","18:00","-9.2","","-13.9","","69","","","","23","","11","","16.1","","98.35","","","","-15","","NA"
"-111.22","56.65","FORT MCMURRAY A","3062697","2013-11-25 19:00","2013","11","25","19:00","-10.5","","-14.4","","73","","","","25","","5","","16.1","","98.38","","","","-14","","NA"
"-111.22","56.65","FORT MCMURRAY A","3062697","2013-11-25 20:00","2013","11","25","20:00","-10.7","","-14.0","","77","","","","23","","9","","16.1","","98.41","","","","-16","","NA"
"-111.22","56.65","FORT MCMURRAY A","3062697","2013-11-25 21:00","2013","11","25","21:00","-11.9","","-14.6","","80","","","","","","0","","16.1","","98.44","","","","","","NA"
"-111.22","56.65","FORT MCMURRAY A","3062697","2013-11-25 22:00","2013","11","25","22:00","-13.7","","-16.3","","81","","","","","","0","","16.1","","98.45","","","","","","NA"
"-111.22","56.65","FORT MCMURRAY A","3062697","2013-11-25 23:00","2013","11","25","23:00","-15.1","","-16.9","","86","","","","","","0","","16.1","","98.43","","","","","","NA"
"-111.22","56.65","FORT MCMURRAY A","3062697","2013-11-26 00:00","2013","11","26","00:00","-15.6","","-16.7","","91","","","","9","","5","","16.1","","98.38","","","","-19","","NA"
"-111.22","56.65","FORT MCMURRAY A","3062697","2013-11-26 01:00","2013","11","26","01:00","-17.5","","-19.3","","86","","","","9","","5","","16.1","","98.37","","","","-21","","NA"
"-111.22","56.65","FORT MCMURRAY A","3062697","2013-11-26 02:00","2013","11","26","02:00","-16.9","","-18.2","","90","","","","9","","9","","16.1","","98.31","","","","-23","","NA"
"-111.22","56.65","FORT MCMURRAY A","3062697","2013-11-26 03:00","2013","11","26","03:00","-15.3","","-17.1","","86","","","","12","","8","","16.1","","98.31","","","","-21","","NA"
"-111.22","56.65","FORT MCMURRAY A","3062697","2013-11-26 04:00","2013","11","26","04:00","-14.1","","-16.0","","86","","","","9","","11","","16.1","","98.22","","","","-21","","NA"
"-111.22","56.65","FORT MCMURRAY A","3062697","2013-11-26 05:00","2013","11","26","05:00","-13.2","","-15.4","","84","","","","10","","15","","16.1","","98.09","","","","-21","","NA"
"-111.22","56.65","FORT MCMURRAY A","3062697","2013-11-26 06:00","2013","11","26","06:00","-12.6","","-14.9","","83","","","","10","","15","","16.1","","97.93","","","","-20","","NA"
"-111.22","56.65","FORT MCMURRAY A","3062697","2013-11-26 07:00","2013","11","26","07:00","-11.5","","-14.3","","80","","","","10","","18","","16.1","","97.84","","","","-19","","NA"
"-111.22","56.65","FORT MCMURRAY A","3062697","2013-11-26 08:00","2013","11","26","08:00","-10.8","","-13.8","","79","","","","11","","18","","16.1","","97.67","","","","-18","","NA"
"-111.22","56.65","FORT MCMURRAY A","3062697","2013-11-26 09:00","2013","11","26","09:00","-10.1","","-13.4","","77","","","","10","","18","","16.1","","97.55","","","","-18","","NA"
"-111.22","56.65","FORT MCMURRAY A","3062697","2013-11-26 10:00","2013","11","26","10:00","-9.1","","-13.0","","73","","","","11","","22","","16.1","","97.44","","","","-17","","NA"
"-111.22","56.65","FORT MCMURRAY A","3062697","2013-11-26 11:00","2013","11","26","11:00","-8.2","","-12.4","","72","","","","11","","24","","16.1","","97.29","","","","-16","","NA"
"-111.22","56.65","FORT MCMURRAY A","3062697","2013-11-26 12:00","2013","11","26","12:00","-6.7","","-10.9","","72","","","","12","","22","","16.1","","97.12","","","","-14","","NA"
"-111.22","56.65","FORT MCMURRAY A","3062697","2013-11-26 13:00","2013","11","26","13:00","-4.8","","-10.9","","63","","","","12","","13","","16.1","","97.04","","","","-10","","NA"
"-111.22","56.65","FORT MCMURRAY A","3062697","2013-11-26 14:00","2013","11","26","14:00","-4.6","","-10.3","","65","","","","11","","13","","16.1","","96.95","","","","-10","","NA"
"-111.22","56.65","FORT MCMURRAY A","3062697","2013-11-26 15:00","2013","11","26","15:00","-4.9","","-10.3","","66","","","","7","","8","","16.1","","96.92","","","","-8","","NA"
"-111.22","56.65","FORT MCMURRAY A","3062697","2013-11-26 16:00","2013","11","26","16:00","-6.4","","-10.0","","76","","","","32","","4","","16.1","","96.93","","","","-8","","NA"
"-111.22","56.65","FORT MCMURRAY A","3062697","2013-11-26 17:00","2013","11","26","17:00","-7.3","","-10.5","","78","","","","27","","5","","16.1","","96.95","","","","-10","","NA"
"-111.22","56.65","FORT MCMURRAY A","3062697","2013-11-26 18:00","2013","11","26","18:00","-5.1","","-8.8","","75","","","","28","","15","","16.1","","96.98","","","","-11","","NA"
"-111.22","56.65","FORT MCMURRAY A","3062697","2013-11-26 19:00","2013","11","26","19:00","-4.0","","-6.6","","82","","","","25","","18","","16.1","","96.96","","","","-10","","NA"
"-111.22","56.65","FORT MCMURRAY A","3062697","2013-11-26 20:00","2013","11","26","20:00","-3.8","","-6.4","","82","","","","25","","18","","16.1","","96.97","","","","-10","","NA"
"-111.22","56.65","FORT MCMURRAY A","3062697","2013-11-26 21:00","2013","11","26","21:00","-4.7","","-7.2","","83","","","","27","","17","","16.1","","96.99","","","","-11","","NA"
"-111.22","56.65","FORT MCMURRAY A","3062697","2013-11-26 22:00","2013","11","26","22:00","-5.2","","-7.7","","83","","","","26","","11","","16.1","","97.08","","","","-10","","NA"
"-111.22","56.65","FORT MCMURRAY A","3062697","2013-11-26 23:00","2013","11","26","23:00","-6.3","","-8.4","","85","","","","27","","9","","16.1","","97.13","","","","-11","","NA"
"-111.22","56.65","FORT MCMURRAY A","3062697","2013-11-27 00:00","2013","11","27","00:00","-5.8","","-8.2","","83","","","","30","","13","","16.1","","97.22","","","","-11","","NA"
"-111.22","56.65","FORT MCMURRAY A","3062697","2013-11-27 01:00","2013","11","27","01:00","-6.0","","-8.3","","84","","","","29","","11","","16.1","","97.32","","","","-11","","NA"
"-111.22","56.65","FORT MCMURRAY A","3062697","2013-11-27 02:00","2013","11","27","02:00","-6.0","","-8.3","","84","","","","30","","13","","16.1","","97.40","","","","-11","","NA"
"-111.22","56.65","FORT MCMURRAY A","3062697","2013-11-27 03:00","2013","11","27","03:00","-6.0","","-8.1","","85","","","","28","","13","","16.1","","97.49","","","","-11","","NA"
"-111.22","56.65","FORT MCMURRAY A","3062697","2013-11-27 04:00","2013","11","27","04:00","-5.8","","-8.4","","82","","","","28","","17","","16.1","","97.54","","","","-12","","NA"
"-111.22","56.65","FORT MCMURRAY A","3062697","2013-11-27 05:00","2013","11","27","05:00","-6.4","","-8.2","","87","","","","34","","15","","16.1","","97.64","","","","-12","","NA"
"-111.22","56.65","FORT MCMURRAY A","3062697","2013-11-27 06:00","2013","11","27","06:00","-7.3","","-9.4","","85","","","","36","","18","","16.1","","97.72","","","","-14","","NA"
"-111.22","56.65","FORT MCMURRAY A","3062697","2013-11-27 07:00","2013","11","27","07:00","-7.7","","-10.6","","80","","","","34","","9","","16.1","","97.82","","","","-12","","NA"
"-111.22","56.65","FORT MCMURRAY A","3062697","2013-11-27 08:00","2013","11","27","08:00","-8.1","","-11.0","","80","","","","35","","11","","16.1","","97.86","","","","-13","","NA"
"-111.22","56.65","FORT MCMURRAY A","3062697","2013-11-27 09:00","2013","11","27","09:00","-8.4","","-11.0","","82","","","","36","","9","","16.1","","97.90","","","","-13","","NA"
"-111.22","56.65","FORT MCMURRAY A","3062697","2013-11-27 10:00","2013","11","27","10:00","-8.5","","-10.7","","84","","","","33","","9","","16.1","","97.97","","","","-13","","NA"
"-111.22","56.65","FORT MCMURRAY A","3062697","2013-11-27 11:00","2013","11","27","11:00","-8.8","","-10.9","","85","","","","36","","13","","9.7","","98.05","","","","-15","","NA"
"-111.22","56.65","FORT MCMURRAY A","3062697","2013-11-27 12:00","2013","11","27","12:00","-8.8","","-11.2","","83","","","","1","","17","","16.1","","98.09","","","","-16","","NA"
"-111.22","56.65","FORT MCMURRAY A","3062697","2013-11-27 13:00","2013","11","27","13:00","-8.6","","-11.3","","81","","","","","M","4","","16.1","","98.09","","","","-11","","NA"
"-111.22","56.65","FORT MCMURRAY A","3062697","2013-11-27 14:00","2013","11","27","14:00","-8.4","","-11.2","","80","","","","","","0","","16.1","","98.10","","","","","","NA"
"-111.22","56.65","FORT MCMURRAY A","3062697","2013-11-27 15:00","2013","11","27","15:00","-8.3","","-11.0","","81","","","","34","","8","","16.1","","98.09","","","","-12","","NA"
"-111.22","56.65","FORT MCMURRAY A","3062697","2013-11-27 16:00","2013","11","27","16:00","-8.7","","-11.4","","81","","","","","M","4","","16.1","","98.09","","","","-11","","NA"
"-111.22","56.65","FORT MCMURRAY A","3062697","2013-11-27 17:00","2013","11","27","17:00","-8.8","","-11.3","","82","","","","","M","4","","16.1","","98.10","","","","-11","","NA"
"-111.22","56.65","FORT MCMURRAY A","3062697","2013-11-27 18:00","2013","11","27","18:00","-9.0","","-11.4","","83","","","","13","","8","","16.1","","98.12","","","","-13","","NA"
"-111.22","56.65","FORT MCMURRAY A","3062697","2013-11-27 19:00","2013","11","27","19:00","-9.4","","-11.6","","84","","","","12","","4","","16.1","","98.12","","","","-12","","NA"
"-111.22","56.65","FORT MCMURRAY A","3062697","2013-11-27 20:00","2013","11","27","20:00","-9.3","","-11.4","","85","","","","9","","5","","16.1","","98.11","","","","-12","","NA"
"-111.22","56.65","FORT MCMURRAY A","3062697","2013-11-27 21:00","2013","11","27","21:00","-9.3","","-11.4","","85","","","","12","","5","","16.1","","98.08","","","","-12","","NA"
"-111.22","56.65","FORT MCMURRAY A","3062697","2013-11-27 22:00","2013","11","27","22:00","-9.1","","-11.3","","84","","","","15","","9","","16.1","","98.04","","","","-14","","NA"
"-111.22","56.65","FORT MCMURRAY A","3062697","2013-11-27 23:00","2013","11","27","23:00","-9.1","","-11.6","","82","","","","15","","11","","16.1","","98.04","","","","-15","","NA"
"-111.22","56.65","FORT MCMURRAY A","3062697","2013-11-28 00:00","2013","11","28","00:00","-9.1","","-11.5","","83","","","","13","","11","","16.1","","98.00","","","","-15","","NA"
"-111.22","56.65","FORT MCMURRAY A","3062697","2013-11-28 01:00","2013","11","28","01:00","-9.1","","-11.2","","85","","","","13","","9","","16.1","","97.95","","","","-14","","NA"
"-111.22","56.65","FORT MCMURRAY A","3062697","2013-11-28 02:00","2013","11","28","02:00","-9.1","","-11.1","","86","","","","12","","15","","16.1","","97.88","","","","-16","","NA"
"-111.22","56.65","FORT MCMURRAY A","3062697","2013-11-28 03:00","2013","11","28","03:00","-9.0","","-11.1","","85","","","","12","","15","","16.1","","97.83","","","","-16","","NA"
"-111.22","56.65","FORT MCMURRAY A","3062697","2013-11-28 04:00","2013","11","28","04:00","-8.9","","-10.9","","86","","","","12","","17","","16.1","","97.77","","","","-16","","NA"
"-111.22","56.65","FORT MCMURRAY A","3062697","2013-11-28 05:00","2013","11","28","05:00","-8.8","","-10.6","","87","","","","11","","15","","16.1","","97.69","","","","-15","","NA"
"-111.22","56.65","FORT MCMURRAY A","3062697","2013-11-28 06:00","2013","11","28","06:00","-8.9","","-10.7","","87","","","","11","","17","","16.1","","97.60","","","","-16","","NA"
"-111.22","56.65","FORT MCMURRAY A","3062697","2013-11-28 07:00","2013","11","28","07:00","-8.9","","-10.7","","87","","","","12","","17","","16.1","","97.51","","","","-16","","NA"
"-111.22","56.65","FORT MCMURRAY A","3062697","2013-11-28 08:00","2013","11","28","08:00","-8.4","","-10.2","","87","","","","12","","22","","16.1","","97.45","","","","-16","","NA"
"-111.22","56.65","FORT MCMURRAY A","3062697","2013-11-28 09:00","2013","11","28","09:00","-8.2","","-10.0","","87","","","","12","","26","","16.1","","97.35","","","","-17","","NA"
"-111.22","56.65","FORT MCMURRAY A","3062697","2013-11-28 10:00","2013","11","28","10:00","-8.3","","-10.2","","86","","","","12","","21","","16.1","","97.29","","","","-16","","NA"
"-111.22","56.65","FORT MCMURRAY A","3062697","2013-11-28 11:00","2013","11","28","11:00","-7.9","","-10.0","","85","","","","12","","21","","16.1","","97.24","","","","-15","","NA"
"-111.22","56.65","FORT MCMURRAY A","3062697","2013-11-28 12:00","2013","11","28","12:00","-7.4","","-9.5","","85","","","","12","","28","","16.1","","97.12","","","","-16","","NA"
"-111.22","56.65","FORT MCMURRAY A","3062697","2013-11-28 13:00","2013","11","28","13:00","-7.2","","-9.6","","83","","","","12","","30","","16.1","","97.01","","","","-16","","NA"
"-111.22","56.65","FORT MCMURRAY A","3062697","2013-11-28 14:00","2013","11","28","14:00","-6.8","","-9.2","","83","","","","12","","22","","16.1","","96.90","","","","-14","","NA"
"-111.22","56.65","FORT MCMURRAY A","3062697","2013-11-28 15:00","2013","11","28","15:00","-6.1","","-8.7","","82","","","","12","","24","","16.1","","96.80","","","","-14","","NA"
"-111.22","56.65","FORT MCMURRAY A","3062697","2013-11-28 16:00","2013","11","28","16:00","-5.6","","-8.4","","81","","","","13","","24","","16.1","","96.73","","","","-13","","NA"
"-111.22","56.65","FORT MCMURRAY A","3062697","2013-11-28 17:00","2013","11","28","17:00","-5.6","","-7.4","","87","","","","13","","24","","2.0","","96.64","","","","-13","","NA"
"-111.22","56.65","FORT MCMURRAY A","3062697","2013-11-28 18:00","2013","11","28","18:00","-5.7","","-7.1","","90","","","","13","","21","","2.0","","96.58","","","","-13","","NA"
"-111.22","56.65","FORT MCMURRAY A","3062697","2013-11-28 19:00","2013","11","28","19:00","-5.6","","-6.8","","91","","","","12","","22","","2.0","","96.44","","","","-13","","NA"
"-111.22","56.65","FORT MCMURRAY A","3062697","2013-11-28 20:00","2013","11","28","20:00","-5.3","","-6.3","","93","","","","14","","15","","1.2","","96.43","","","","-11","","NA"
"-111.22","56.65","FORT MCMURRAY A","3062697","2013-11-28 21:00","2013","11","28","21:00","-5.3","","-6.5","","91","","","","12","","13","","16.1","","96.34","","","","-10","","NA"
"-111.22","56.65","FORT MCMURRAY A","3062697","2013-11-28 22:00","2013","11","28","22:00","-6.5","","-7.5","","93","","","","12","","11","","16.1","","96.24","","","","-11","","NA"
"-111.22","56.65","FORT MCMURRAY A","3062697","2013-11-28 23:00","2013","11","28","23:00","-8.1","","-8.9","","94","","","","10","","11","","16.1","","96.26","","","","-13","","NA"
"-111.22","56.65","FORT MCMURRAY A","3062697","2013-11-29 00:00","2013","11","29","00:00","-4.3","","-5.6","","91","","","","21","","8","","4.0","","96.23","","","","-8","","NA"
"-111.22","56.65","FORT MCMURRAY A","3062697","2013-11-29 01:00","2013","11","29","01:00","-2.0","","-3.0","","93","","","","24","","18","","2.4","","96.23","","","","-7","","NA"
"-111.22","56.65","FORT MCMURRAY A","3062697","2013-11-29 02:00","2013","11","29","02:00","-1.7","","-3.0","","91","","","","23","","15","","9.7","","96.20","","","","-7","","NA"
"-111.22","56.65","FORT MCMURRAY A","3062697","2013-11-29 03:00","2013","11","29","03:00","-1.7","","-3.3","","89","","","","23","","15","","16.1","","96.20","","","","-7","","NA"
"-111.22","56.65","FORT MCMURRAY A","3062697","2013-11-29 04:00","2013","11","29","04:00","-1.6","","-3.5","","87","","","","22","","21","","16.1","","96.19","","","","-7","","NA"
"-111.22","56.65","FORT MCMURRAY A","3062697","2013-11-29 05:00","2013","11","29","05:00","-1.7","","-4.1","","84","","","","22","","28","","16.1","","96.22","","","","-8","","NA"
"-111.22","56.65","FORT MCMURRAY A","3062697","2013-11-29 06:00","2013","11","29","06:00","-2.1","","-4.5","","84","","","","24","","22","","16.1","","96.26","","","","-8","","NA"
"-111.22","56.65","FORT MCMURRAY A","3062697","2013-11-29 07:00","2013","11","29","07:00","-2.7","","-4.9","","85","","","","23","","26","","16.1","","96.26","","","","-10","","NA"
"-111.22","56.65","FORT MCMURRAY A","3062697","2013-11-29 08:00","2013","11","29","08:00","-3.2","","-5.3","","85","","","","24","","21","","16.1","","96.32","","","","-9","","NA"
"-111.22","56.65","FORT MCMURRAY A","3062697","2013-11-29 09:00","2013","11","29","09:00","-4.0","","-5.9","","87","","","","24","","11","","16.1","","96.38","","","","-8","","NA"
"-111.22","56.65","FORT MCMURRAY A","3062697","2013-11-29 10:00","2013","11","29","10:00","-4.6","","-6.4","","87","","","","25","","11","","16.1","","96.44","","","","-9","","NA"
"-111.22","56.65","FORT MCMURRAY A","3062697","2013-11-29 11:00","2013","11","29","11:00","-3.2","","-5.7","","83","","","","26","","18","","16.1","","96.48","","","","-9","","NA"
"-111.22","56.65","FORT MCMURRAY A","3062697","2013-11-29 12:00","2013","11","29","12:00","-2.5","","-5.4","","80","","","","27","","17","","16.1","","96.54","","","","-8","","NA"
"-111.22","56.65","FORT MCMURRAY A","3062697","2013-11-29 13:00","2013","11","29","13:00","-1.6","","-5.0","","78","","","","27","","15","","16.1","","96.58","","","","-6","","NA"
"-111.22","56.65","FORT MCMURRAY A","3062697","2013-11-29 14:00","2013","11","29","14:00","-0.7","","-4.6","","75","","","","27","","15","","16.1","","96.60","","","","-5","","NA"
"-111.22","56.65","FORT MCMURRAY A","3062697","2013-11-29 15:00","2013","11","29","15:00","-0.4","","-4.3","","75","","","","27","","13","","16.1","","96.67","","","","-5","","NA"
"-111.22","56.65","FORT MCMURRAY A","3062697","2013-11-29 16:00","2013","11","29","16:00","-1.3","","-4.8","","77","","","","29","","15","","16.1","","96.69","","","","-6","","NA"
"-111.22","56.65","FORT MCMURRAY A","3062697","2013-11-29 17:00","2013","11","29","17:00","-2.7","","-5.6","","81","","","","28","","8","","16.1","","96.75","","","","-6","","NA"
"-111.22","56.65","FORT MCMURRAY A","3062697","2013-11-29 18:00","2013","11","29","18:00","-4.2","","-6.2","","86","","","","27","","8","","16.1","","96.84","","","","-8","","NA"
"-111.22","56.65","FORT MCMURRAY A","3062697","2013-11-29 19:00","2013","11","29","19:00","-4.9","","-6.2","","91","","","","25","","5","","16.1","","96.89","","","","-7","","NA"
"-111.22","56.65","FORT MCMURRAY A","3062697","2013-11-29 20:00","2013","11","29","20:00","-5.0","","-6.0","","93","","","","24","","5","","16.1","","96.94","","","","-7","","NA"
"-111.22","56.65","FORT MCMURRAY A","3062697","2013-11-29 21:00","2013","11","29","21:00","-6.9","","-7.8","","93","","","","22","","13","","16.1","","97.00","","","","-12","","NA"
"-111.22","56.65","FORT MCMURRAY A","3062697","2013-11-29 22:00","2013","11","29","22:00","-6.1","","-7.4","","90","","","","22","","11","","16.1","","97.05","","","","-11","","NA"
"-111.22","56.65","FORT MCMURRAY A","3062697","2013-11-29 23:00","2013","11","29","23:00","-7.4","","-8.5","","92","","","","21","","8","","16.1","","97.07","","","","-11","","NA"
"-111.22","56.65","FORT MCMURRAY A","3062697","2013-11-30 00:00","2013","11","30","00:00","-9.9","","-10.6","","95","","","","","M","4","","16.1","","97.10","","","","-12","","NA"
"-111.22","56.65","FORT MCMURRAY A","3062697","2013-11-30 01:00","2013","11","30","01:00","-10.1","","-10.6","","96","","","","9","","4","","16.1","","97.09","","","","-12","","NA"
"-111.22","56.65","FORT MCMURRAY A","3062697","2013-11-30 02:00","2013","11","30","02:00","-11.8","","-12.6","","94","","","","","M","4","","16.1","","97.14","","","","-14","","NA"
"-111.22","56.65","FORT MCMURRAY A","3062697","2013-11-30 03:00","2013","11","30","03:00","-11.2","","-11.9","","95","","","","9","","5","","16.1","","97.17","","","","-14","","NA"
"-111.22","56.65","FORT MCMURRAY A","3062697","2013-11-30 04:00","2013","11","30","04:00","-13.6","","-15.4","","86","","","","12","","11","","16.1","","97.18","","","","-20","","NA"
"-111.22","56.65","FORT MCMURRAY A","3062697","2013-11-30 05:00","2013","11","30","05:00","-11.2","","-12.3","","92","","","","13","","9","","16.1","","97.18","","","","-16","","NA"
"-111.22","56.65","FORT MCMURRAY A","3062697","2013-11-30 06:00","2013","11","30","06:00","-10.5","","-11.6","","92","","","","11","","5","","16.1","","97.15","","","","-14","","NA"
"-111.22","56.65","FORT MCMURRAY A","3062697","2013-11-30 07:00","2013","11","30","07:00","-9.4","","-10.4","","93","","","","10","","13","","16.1","","97.12","","","","-15","","NA"
"-111.22","56.65","FORT MCMURRAY A","3062697","2013-11-30 08:00","2013","11","30","08:00","-9.4","","-10.5","","92","","","","9","","15","","16.1","","97.09","","","","-16","","NA"
"-111.22","56.65","FORT MCMURRAY A","3062697","2013-11-30 09:00","2013","11","30","09:00","-8.9","","-10.0","","92","","","","10","","11","","16.1","","97.10","","","","-14","","NA"
"-111.22","56.65","FORT MCMURRAY A","3062697","2013-11-30 10:00","2013","11","30","10:00","-8.2","","-9.3","","92","","","","9","","15","","16.1","","97.07","","","","-15","","NA"
"-111.22","56.65","FORT MCMURRAY A","3062697","2013-11-30 11:00","2013","11","30","11:00","-8.0","","-9.1","","92","","","","9","","15","","16.1","","97.06","","","","-14","","NA"
"-111.22","56.65","FORT MCMURRAY A","3062697","2013-11-30 12:00","2013","11","30","12:00","-6.5","","-7.6","","92","","","","9","","13","","16.1","","97.04","","","","-12","","NA"
"-111.22","56.65","FORT MCMURRAY A","3062697","2013-11-30 13:00","2013","11","30","13:00","-5.1","","-6.5","","90","","","","10","","11","","16.1","","97.03","","","","-10","","NA"
"-111.22","56.65","FORT MCMURRAY A","3062697","2013-11-30 14:00","2013","11","30","14:00","-3.6","","-5.5","","87","","","","11","","13","","16.1","","96.96","","","","-8","","NA"
"-111.22","56.65","FORT MCMURRAY A","3062697","2013-11-30 15:00","2013","11","30","15:00","-3.0","","-4.9","","87","","","","10","","11","","16.1","","96.92","","","","-7","","NA"
"-111.22","56.65","FORT MCMURRAY A","3062697","2013-11-30 16:00","2013","11","30","16:00","-2.6","","-4.9","","84","","","","11","","13","","16.1","","96.91","","","","-7","","NA"
"-111.22","56.65","FORT MCMURRAY A","3062697","2013-11-30 17:00","2013","11","30","17:00","-2.6","","-4.6","","86","","","","11","","13","","6.4","","96.91","","","","-7","","NA"
"-111.22","56.65","FORT MCMURRAY A","3062697","2013-11-30 18:00","2013","11","30","18:00","-2.8","","-3.8","","93","","","","10","","9","","2.0","","96.92","","","","-6","","NA"
"-111.22","56.65","FORT MCMURRAY A","3062697","2013-11-30 19:00","2013","11","30","19:00","-2.6","","-3.2","","96","","","","9","","9","","1.6","","96.88","","","","-6","","NA"
"-111.22","56.65","FORT MCMURRAY A","3062697","2013-11-30 20:00","2013","11","30","20:00","-2.5","","-3.1","","96","","","","9","","9","","2.0","","96.86","","","","-6","","NA"
"-111.22","56.65","FORT MCMURRAY A","3062697","2013-11-30 21:00","2013","11","30","21:00","-2.2","","-2.8","","96","","","","10","","9","","2.8","","96.83","","","","-6","","NA"
"-111.22","56.65","FORT MCMURRAY A","3062697","2013-11-30 22:00","2013","11","30","22:00","-2.0","","-2.4","","97","","","","9","","5","","4.8","","96.82","","","","-4","","NA"
"-111.22","56.65","FORT MCMURRAY A","3062697","2013-11-30 23:00","2013","11","30","23:00","-2.8","","-3.5","","95","","","","32","","5","","16.1","","96.83","","","","-5","","NA"
